{
"type": "FeatureCollection",
"name": "shanghai_metro_lines",
"crs": { "type": "name", "properties": { "name": "urn:ogc:def:crs:OGC:1.3:CRS84" } },
"features": [
{ "type": "Feature", "properties": { "line_name": "1号线", "color": "#E3002A", "n_stations": 28 }, "geometry": { "type": "LineString", "coordinates": [ [ 121.385373, 31.111152 ], [ 121.39302, 31.120899 ], [ 121.40291, 31.1309 ], [ 121.414107, 31.142217 ], [ 121.430041, 31.154579 ], [ 121.433143, 31.168344 ], [ 121.437423, 31.182813 ], [ 121.436603, 31.195514 ], [ 121.446424, 31.204528 ], [ 121.449141, 31.213524 ], [ 121.458741, 31.215148 ], [ 121.472904, 31.223898 ], [ 121.475108, 31.232687 ], [ 121.468151, 31.238373 ], [ 121.458699, 31.241883 ], [ 121.457939, 31.249632 ], [ 121.459204, 31.258891 ], [ 121.455329, 31.271675 ], [ 121.452023, 31.279895 ], [ 121.450251, 31.292556 ], [ 121.448642, 31.306604 ], [ 121.447063, 31.318936 ], [ 121.441546, 31.33113 ], [ 121.437711, 31.339703 ], [ 121.434063, 31.355082 ], [ 121.430914, 31.369555 ], [ 121.427953, 31.381296 ], [ 121.424661, 31.39226 ] ] } },
{ "type": "Feature", "properties": { "line_name": "2号线", "color": "#86B81C", "n_stations": 31 }, "geometry": { "type": "LineString", "coordinates": [ [ 121.805591, 31.150958 ], [ 121.796878, 31.168459 ], [ 121.755301, 31.199385 ], [ 121.724095, 31.192861 ], [ 121.69821, 31.186741 ], [ 121.680972, 31.196575 ], [ 121.673713, 31.213871 ], [ 121.656269, 31.214107 ], [ 121.621072, 31.21105 ], [ 121.601989, 31.204213 ], [ 121.58749, 31.201872 ], [ 121.557634, 31.203575 ], [ 121.550909, 31.209421 ], [ 121.544439, 31.21882 ], [ 121.527213, 31.228682 ], [ 121.515556, 31.23327 ], [ 121.502129, 31.238259 ], [ 121.484628, 31.238101 ], [ 121.475108, 31.232687 ], [ 121.459971, 31.229853 ], [ 121.446533, 31.223231 ], [ 121.430642, 31.220411 ], [ 121.415773, 31.217948 ], [ 121.404058, 31.211158 ], [ 121.387285, 31.21487 ], [ 121.373998, 31.216395 ], [ 121.359536, 31.218225 ], [ 121.324443, 31.194055 ], [ 121.31895, 31.194022 ], [ 121.299204, 31.188367 ], [ 121.286143, 31.181388 ] ] } },
{ "type": "Feature", "properties": { "line_name": "3号线", "color": "#FCD600", "n_stations": 29 }, "geometry": { "type": "LineString", "coordinates": [ [ 121.439819, 31.407858 ], [ 121.461139, 31.40812 ], [ 121.475924, 31.404016 ], [ 121.479574, 31.395315 ], [ 121.488247, 31.381302 ], [ 121.492818, 31.370928 ], [ 121.498671, 31.358016 ], [ 121.50039, 31.345135 ], [ 121.491482, 31.332062 ], [ 121.484856, 31.320005 ], [ 121.485064, 31.305566 ], [ 121.483216, 31.289433 ], [ 121.482429, 31.281247 ], [ 121.479154, 31.271392 ], [ 121.480202, 31.259886 ], [ 121.476298, 31.251523 ], [ 121.457939, 31.249632 ], [ 121.441001, 31.254568 ], [ 121.429779, 31.246369 ], [ 121.417701, 31.239302 ], [ 121.413201, 31.232147 ], [ 121.415773, 31.217948 ], [ 121.417062, 31.209616 ], [ 121.420814, 31.197524 ], [ 121.427194, 31.186717 ], [ 121.43841, 31.176746 ], [ 121.444383, 31.169458 ], [ 121.443205, 31.157949 ], [ 121.430041, 31.154579 ] ] } },
{ "type": "Feature", "properties": { "line_name": "4号线", "color": "#5A2B8D", "n_stations": 26 }, "geometry": { "type": "LineString", "coordinates": [ [ 121.427194, 31.186717 ], [ 121.420814, 31.197524 ], [ 121.417062, 31.209616 ], [ 121.415773, 31.217948 ], [ 121.413201, 31.232147 ], [ 121.417701, 31.239302 ], [ 121.429779, 31.246369 ], [ 121.441001, 31.254568 ], [ 121.457939, 31.249632 ], [ 121.476298, 31.251523 ], [ 121.488697, 31.259303 ], [ 121.500696, 31.260874 ], [ 121.513088, 31.257938 ], [ 121.51721, 31.251935 ], [ 121.519302, 31.240308 ], [ 121.527213, 31.228682 ], [ 121.53208, 31.222285 ], [ 121.527627, 31.211672 ], [ 121.51869, 31.209762 ], [ 121.499725, 31.208504 ], [ 121.489555, 31.201967 ], [ 121.475148, 31.199221 ], [ 121.463278, 31.194057 ], [ 121.454897, 31.190819 ], [ 121.443529, 31.185605 ], [ 121.437423, 31.182813 ] ] } },
{ "type": "Feature", "properties": { "line_name": "5号线", "color": "#96499A", "n_stations": 11 }, "geometry": { "type": "LineString", "coordinates": [ [ 121.385373, 31.111152 ], [ 121.385818, 31.09825 ], [ 121.390264, 31.089345 ], [ 121.401868, 31.067013 ], [ 121.410054, 31.045112 ], [ 121.416582, 31.026483 ], [ 121.419901, 31.018197 ], [ 121.410186, 31.011282 ], [ 121.395255, 31.007467 ], [ 121.380775, 31.003597 ], [ 121.369712, 31.000627 ] ] } },
{ "type": "Feature", "properties": { "line_name": "5号线", "color": "#96499A", "n_stations": 15 }, "geometry": { "type": "LineString", "coordinates": [ [ 121.385373, 31.111152 ], [ 121.385818, 31.09825 ], [ 121.390264, 31.089345 ], [ 121.401868, 31.067013 ], [ 121.410054, 31.045112 ], [ 121.416582, 31.026483 ], [ 121.419901, 31.018197 ], [ 121.423474, 31.005428 ], [ 121.432441, 30.98935 ], [ 121.441857, 30.965888 ], [ 121.448984, 30.942055 ], [ 121.463204, 30.931168 ], [ 121.48358, 30.93194 ], [ 121.492506, 30.928805 ], [ 121.49629, 30.913916 ] ] } },
{ "type": "Feature", "properties": { "line_name": "6号线", "color": "#F0087D", "n_stations": 28 }, "geometry": { "type": "LineString", "coordinates": [ [ 121.480304, 31.153366 ], [ 121.495295, 31.148665 ], [ 121.506447, 31.14882 ], [ 121.514539, 31.149878 ], [ 121.515787, 31.159907 ], [ 121.510868, 31.172646 ], [ 121.509845, 31.185761 ], [ 121.516695, 31.193202 ], [ 121.523482, 31.203277 ], [ 121.527627, 31.211672 ], [ 121.529351, 31.220154 ], [ 121.527213, 31.228682 ], [ 121.534642, 31.233004 ], [ 121.543527, 31.235851 ], [ 121.552314, 31.239145 ], [ 121.564237, 31.2454 ], [ 121.571153, 31.250969 ], [ 121.581817, 31.257084 ], [ 121.586689, 31.26352 ], [ 121.587866, 31.272025 ], [ 121.588365, 31.280684 ], [ 121.588736, 31.290684 ], [ 121.589212, 31.302569 ], [ 121.589396, 31.312229 ], [ 121.601963, 31.321578 ], [ 121.593974, 31.335371 ], [ 121.586926, 31.347802 ], [ 121.575017, 31.353223 ] ] } },
{ "type": "Feature", "properties": { "line_name": "7号线", "color": "#EE782E", "n_stations": 33 }, "geometry": { "type": "LineString", "coordinates": [ [ 121.562754, 31.211212 ], [ 121.557634, 31.203575 ], [ 121.550115, 31.19311 ], [ 121.540041, 31.187592 ], [ 121.524539, 31.187613 ], [ 121.509845, 31.185761 ], [ 121.500439, 31.182212 ], [ 121.494605, 31.178513 ], [ 121.487775, 31.174452 ], [ 121.473756, 31.171918 ], [ 121.457064, 31.184379 ], [ 121.454897, 31.190819 ], [ 121.450212, 31.199436 ], [ 121.449141, 31.213524 ], [ 121.446533, 31.223231 ], [ 121.442617, 31.233749 ], [ 121.438272, 31.24086 ], [ 121.429779, 31.246369 ], [ 121.421939, 31.256198 ], [ 121.422668, 31.263855 ], [ 121.422949, 31.274047 ], [ 121.42177, 31.284496 ], [ 121.416157, 31.293259 ], [ 121.413458, 31.303682 ], [ 121.408686, 31.314969 ], [ 121.398419, 31.32174 ], [ 121.388884, 31.320586 ], [ 121.373529, 31.322388 ], [ 121.373009, 31.344594 ], [ 121.362376, 31.357586 ], [ 121.355845, 31.364182 ], [ 121.35747, 31.388831 ], [ 121.349894, 31.401889 ] ] } },
{ "type": "Feature", "properties": { "line_name": "8号线", "color": "#01A2E2", "n_stations": 30 }, "geometry": { "type": "LineString", "coordinates": [ [ 121.512272, 31.061427 ], [ 121.510594, 31.073567 ], [ 121.508603, 31.084253 ], [ 121.506272, 31.09659 ], [ 121.49826, 31.11907 ], [ 121.489663, 31.141301 ], [ 121.480304, 31.153366 ], [ 121.493443, 31.161054 ], [ 121.49622, 31.170735 ], [ 121.494605, 31.178513 ], [ 121.493626, 31.185242 ], [ 121.489555, 31.201967 ], [ 121.486115, 31.211789 ], [ 121.483793, 31.219014 ], [ 121.479182, 31.227392 ], [ 121.475108, 31.232687 ], [ 121.471543, 31.242307 ], [ 121.469026, 31.253228 ], [ 121.468818, 31.263453 ], [ 121.479154, 31.271392 ], [ 121.491138, 31.276524 ], [ 121.501488, 31.27488 ], [ 121.509685, 31.273242 ], [ 121.518379, 31.274946 ], [ 121.528401, 31.278814 ], [ 121.534941, 31.288543 ], [ 121.533383, 31.295389 ], [ 121.531974, 31.305002 ], [ 121.531954, 31.314804 ], [ 121.531933, 31.322724 ] ] } },
{ "type": "Feature", "properties": { "line_name": "9号线", "color": "#69C7F4", "n_stations": 35 }, "geometry": { "type": "LineString", "coordinates": [ [ 121.683153, 31.271297 ], [ 121.668125, 31.268335 ], [ 121.656465, 31.266074 ], [ 121.638629, 31.263141 ], [ 121.628741, 31.264304 ], [ 121.611336, 31.26085 ], [ 121.597458, 31.252825 ], [ 121.577995, 31.241028 ], [ 121.558431, 31.231845 ], [ 121.548664, 31.22751 ], [ 121.527213, 31.228682 ], [ 121.516275, 31.230258 ], [ 121.498398, 31.216866 ], [ 121.486115, 31.211789 ], [ 121.477256, 31.20952 ], [ 121.468681, 31.206309 ], [ 121.460704, 31.20282 ], [ 121.450212, 31.199436 ], [ 121.436603, 31.195514 ], [ 121.427194, 31.186717 ], [ 121.418064, 31.174791 ], [ 121.397769, 31.170644 ], [ 121.384772, 31.166542 ], [ 121.368903, 31.158109 ], [ 121.349221, 31.155287 ], [ 121.334596, 31.149766 ], [ 121.319423, 31.137252 ], [ 121.260247, 31.118272 ], [ 121.229686, 31.104097 ], [ 121.230473, 31.084492 ], [ 121.232577, 31.053984 ], [ 121.230739, 31.030295 ], [ 121.230546, 31.016006 ], [ 121.229361, 31.001125 ], [ 121.230884, 30.984818 ] ] } },
{ "type": "Feature", "properties": { "line_name": "10号线", "color": "#C6AFD4", "n_stations": 33 }, "geometry": { "type": "LineString", "coordinates": [ [ 121.590411, 31.351311 ], [ 121.575017, 31.353223 ], [ 121.562971, 31.352622 ], [ 121.54928, 31.351489 ], [ 121.539425, 31.353601 ], [ 121.513168, 31.339548 ], [ 121.506951, 31.328496 ], [ 121.506797, 31.321768 ], [ 121.50834, 31.313214 ], [ 121.513314, 31.304293 ], [ 121.514632, 31.298043 ], [ 121.510024, 31.289276 ], [ 121.506357, 31.282086 ], [ 121.501488, 31.27488 ], [ 121.494247, 31.268431 ], [ 121.488697, 31.259303 ], [ 121.484208, 31.252035 ], [ 121.482321, 31.243815 ], [ 121.484628, 31.238101 ], [ 121.487426, 31.228005 ], [ 121.483793, 31.219014 ], [ 121.475182, 31.216367 ], [ 121.458741, 31.215148 ], [ 121.444363, 31.20796 ], [ 121.435253, 31.202213 ], [ 121.420814, 31.197524 ], [ 121.41208, 31.19654 ], [ 121.403899, 31.19888 ], [ 121.392259, 31.199482 ], [ 121.380034, 31.1944 ], [ 121.37048, 31.176882 ], [ 121.364831, 31.169674 ], [ 121.355336, 31.165417 ] ] } },
{ "type": "Feature", "properties": { "line_name": "10号线", "color": "#C6AFD4", "n_stations": 34 }, "geometry": { "type": "LineString", "coordinates": [ [ 121.590411, 31.351311 ], [ 121.575017, 31.353223 ], [ 121.562971, 31.352622 ], [ 121.54928, 31.351489 ], [ 121.539425, 31.353601 ], [ 121.513168, 31.339548 ], [ 121.506951, 31.328496 ], [ 121.506797, 31.321768 ], [ 121.50834, 31.313214 ], [ 121.513314, 31.304293 ], [ 121.514632, 31.298043 ], [ 121.510024, 31.289276 ], [ 121.506357, 31.282086 ], [ 121.501488, 31.27488 ], [ 121.494247, 31.268431 ], [ 121.488697, 31.259303 ], [ 121.484208, 31.252035 ], [ 121.482321, 31.243815 ], [ 121.484628, 31.238101 ], [ 121.487426, 31.228005 ], [ 121.483793, 31.219014 ], [ 121.475182, 31.216367 ], [ 121.458741, 31.215148 ], [ 121.444363, 31.20796 ], [ 121.435253, 31.202213 ], [ 121.420814, 31.197524 ], [ 121.41208, 31.19654 ], [ 121.403899, 31.19888 ], [ 121.392259, 31.199482 ], [ 121.380034, 31.1944 ], [ 121.368137, 31.190246 ], [ 121.347371, 31.191363 ], [ 121.324443, 31.194055 ], [ 121.31895, 31.194022 ] ] } },
{ "type": "Feature", "properties": { "line_name": "11号线", "color": "#871C2A", "n_stations": 33 }, "geometry": { "type": "LineString", "coordinates": [ [ 121.23735, 31.391549 ], [ 121.227855, 31.377107 ], [ 121.24535, 31.345359 ], [ 121.254294, 31.330062 ], [ 121.276906, 31.319675 ], [ 121.306787, 31.306484 ], [ 121.323141, 31.296952 ], [ 121.349623, 31.281603 ], [ 121.364678, 31.276646 ], [ 121.376035, 31.27165 ], [ 121.389969, 31.26902 ], [ 121.400926, 31.262693 ], [ 121.407219, 31.250767 ], [ 121.411402, 31.24185 ], [ 121.417701, 31.239302 ], [ 121.423576, 31.230509 ], [ 121.430642, 31.220411 ], [ 121.435253, 31.202213 ], [ 121.436603, 31.195514 ], [ 121.441424, 31.179123 ], [ 121.452958, 31.172672 ], [ 121.458519, 31.166488 ], [ 121.459702, 31.15972 ], [ 121.480304, 31.153366 ], [ 121.511796, 31.143224 ], [ 121.522999, 31.146459 ], [ 121.539005, 31.150861 ], [ 121.553699, 31.154229 ], [ 121.570914, 31.158131 ], [ 121.593152, 31.153259 ], [ 121.59839, 31.138128 ], [ 121.617199, 31.130439 ], [ 121.667959, 31.141263 ] ] } },
{ "type": "Feature", "properties": { "line_name": "11号线", "color": "#871C2A", "n_stations": 37 }, "geometry": { "type": "LineString", "coordinates": [ [ 121.667959, 31.141263 ], [ 121.617199, 31.130439 ], [ 121.59839, 31.138128 ], [ 121.593152, 31.153259 ], [ 121.570914, 31.158131 ], [ 121.553699, 31.154229 ], [ 121.539005, 31.150861 ], [ 121.522999, 31.146459 ], [ 121.511796, 31.143224 ], [ 121.480304, 31.153366 ], [ 121.459702, 31.15972 ], [ 121.458519, 31.166488 ], [ 121.452958, 31.172672 ], [ 121.441424, 31.179123 ], [ 121.436603, 31.195514 ], [ 121.435253, 31.202213 ], [ 121.430642, 31.220411 ], [ 121.423576, 31.230509 ], [ 121.417701, 31.239302 ], [ 121.411402, 31.24185 ], [ 121.407219, 31.250767 ], [ 121.400926, 31.262693 ], [ 121.389969, 31.26902 ], [ 121.376035, 31.27165 ], [ 121.364678, 31.276646 ], [ 121.349623, 31.281603 ], [ 121.323141, 31.296952 ], [ 121.306787, 31.306484 ], [ 121.276906, 31.319675 ], [ 121.254294, 31.330062 ], [ 121.226098, 31.331898 ], [ 121.200384, 31.29362 ], [ 121.180742, 31.285403 ], [ 121.161985, 31.28849 ], [ 121.150315, 31.289048 ], [ 121.117186, 31.29621 ], [ 121.104407, 31.29879 ] ] } },
{ "type": "Feature", "properties": { "line_name": "12号线", "color": "#007A61", "n_stations": 32 }, "geometry": { "type": "LineString", "coordinates": [ [ 121.362461, 31.131634 ], [ 121.380349, 31.137452 ], [ 121.39185, 31.140888 ], [ 121.391919, 31.155826 ], [ 121.39725, 31.16035 ], [ 121.410553, 31.164033 ], [ 121.419647, 31.166985 ], [ 121.433143, 31.168344 ], [ 121.444383, 31.169458 ], [ 121.452958, 31.172672 ], [ 121.457064, 31.184379 ], [ 121.463278, 31.194057 ], [ 121.460704, 31.20282 ], [ 121.458741, 31.215148 ], [ 121.459971, 31.229853 ], [ 121.458699, 31.241883 ], [ 121.471543, 31.242307 ], [ 121.482321, 31.243815 ], [ 121.498158, 31.25016 ], [ 121.506801, 31.253518 ], [ 121.513088, 31.257938 ], [ 121.523697, 31.26457 ], [ 121.532352, 31.268574 ], [ 121.544692, 31.275213 ], [ 121.552655, 31.279788 ], [ 121.561315, 31.280779 ], [ 121.579124, 31.282533 ], [ 121.588365, 31.280684 ], [ 121.60296, 31.280092 ], [ 121.615477, 31.279823 ], [ 121.626863, 31.280231 ], [ 121.638629, 31.263141 ] ] } },
{ "type": "Feature", "properties": { "line_name": "13号线", "color": "#EB81B9", "n_stations": 31 }, "geometry": { "type": "LineString", "coordinates": [ [ 121.319308, 31.240986 ], [ 121.335156, 31.241152 ], [ 121.355141, 31.242553 ], [ 121.367275, 31.237625 ], [ 121.381948, 31.232235 ], [ 121.394431, 31.231752 ], [ 121.413201, 31.232147 ], [ 121.423576, 31.230509 ], [ 121.430504, 31.234346 ], [ 121.438272, 31.24086 ], [ 121.44483, 31.244282 ], [ 121.458699, 31.241883 ], [ 121.462366, 31.236451 ], [ 121.459971, 31.229853 ], [ 121.464363, 31.220056 ], [ 121.475182, 31.216367 ], [ 121.477256, 31.20952 ], [ 121.481592, 31.197572 ], [ 121.484313, 31.182789 ], [ 121.487775, 31.174452 ], [ 121.49622, 31.170735 ], [ 121.510868, 31.172646 ], [ 121.526567, 31.176276 ], [ 121.540189, 31.179295 ], [ 121.552017, 31.180131 ], [ 121.558194, 31.175095 ], [ 121.566414, 31.16911 ], [ 121.583109, 31.175759 ], [ 121.602465, 31.178862 ], [ 121.614363, 31.183476 ], [ 121.629182, 31.18913 ] ] } },
{ "type": "Feature", "properties": { "line_name": "14号线", "color": "#818530", "n_stations": 30 }, "geometry": { "type": "LineString", "coordinates": [ [ 121.297006, 31.267488 ], [ 121.314103, 31.265363 ], [ 121.33086, 31.263059 ], [ 121.345697, 31.259195 ], [ 121.362396, 31.256392 ], [ 121.371949, 31.255566 ], [ 121.384162, 31.253278 ], [ 121.397036, 31.250733 ], [ 121.407219, 31.250767 ], [ 121.414541, 31.245059 ], [ 121.417701, 31.239302 ], [ 121.430504, 31.234346 ], [ 121.436157, 31.227303 ], [ 121.446533, 31.223231 ], [ 121.472904, 31.223898 ], [ 121.479182, 31.227392 ], [ 121.487426, 31.228005 ], [ 121.502129, 31.238259 ], [ 121.512412, 31.238532 ], [ 121.519302, 31.240308 ], [ 121.531016, 31.241318 ], [ 121.540104, 31.24394 ], [ 121.551506, 31.250728 ], [ 121.571153, 31.250969 ], [ 121.577995, 31.241028 ], [ 121.591014, 31.233998 ], [ 121.600336, 31.237064 ], [ 121.61543, 31.241645 ], [ 121.629016, 31.242092 ], [ 121.635087, 31.249419 ] ] } },
{ "type": "Feature", "properties": { "line_name": "15号线", "color": "#DAC17D", "n_stations": 30 }, "geometry": { "type": "LineString", "coordinates": [ [ 121.373009, 31.344594 ], [ 121.381765, 31.320184 ], [ 121.380872, 31.308218 ], [ 121.380346, 31.299263 ], [ 121.384813, 31.291558 ], [ 121.392217, 31.284509 ], [ 121.392094, 31.275647 ], [ 121.400926, 31.262693 ], [ 121.397036, 31.250733 ], [ 121.396997, 31.243301 ], [ 121.394431, 31.231752 ], [ 121.39632, 31.225254 ], [ 121.404058, 31.211158 ], [ 121.398372, 31.198863 ], [ 121.406405, 31.19155 ], [ 121.413905, 31.184345 ], [ 121.418064, 31.174791 ], [ 121.419647, 31.166985 ], [ 121.430041, 31.154579 ], [ 121.42899, 31.144257 ], [ 121.435806, 31.131552 ], [ 121.437804, 31.124364 ], [ 121.44431, 31.109817 ], [ 121.433059, 31.103839 ], [ 121.41876, 31.099727 ], [ 121.417897, 31.090625 ], [ 121.42175, 31.083214 ], [ 121.431901, 31.062815 ], [ 121.443203, 31.039147 ], [ 121.451221, 31.02319 ] ] } },
{ "type": "Feature", "properties": { "line_name": "16号线", "color": "#98D1C0", "n_stations": 13 }, "geometry": { "type": "LineString", "coordinates": [ [ 121.557634, 31.203575 ], [ 121.583109, 31.175759 ], [ 121.593152, 31.153259 ], [ 121.606895, 31.110038 ], [ 121.611239, 31.077797 ], [ 121.617494, 31.054919 ], [ 121.64898, 31.045561 ], [ 121.699218, 31.050325 ], [ 121.761677, 31.053828 ], [ 121.7938, 31.026448 ], [ 121.85052, 30.959264 ], [ 121.910851, 30.923519 ], [ 121.929583, 30.907245 ] ] } },
{ "type": "Feature", "properties": { "line_name": "17号线", "color": "#B85A4E", "n_stations": 14 }, "geometry": { "type": "LineString", "coordinates": [ [ 121.31895, 31.194022 ], [ 121.29304, 31.191678 ], [ 121.278645, 31.186328 ], [ 121.253976, 31.178101 ], [ 121.241668, 31.175518 ], [ 121.223916, 31.164099 ], [ 121.192279, 31.161247 ], [ 121.151665, 31.161221 ], [ 121.12567, 31.158925 ], [ 121.096889, 31.160467 ], [ 121.082134, 31.13446 ], [ 121.048989, 31.100594 ], [ 121.019534, 31.098544 ], [ 120.964163, 31.070526 ] ] } },
{ "type": "Feature", "properties": { "line_name": "18号线", "color": "#D0970A", "n_stations": 31 }, "geometry": { "type": "LineString", "coordinates": [ [ 121.419328, 31.335319 ], [ 121.437711, 31.339703 ], [ 121.449331, 31.344152 ], [ 121.475263, 31.345771 ], [ 121.479637, 31.337677 ], [ 121.491482, 31.332062 ], [ 121.49556, 31.321705 ], [ 121.496332, 31.307672 ], [ 121.499529, 31.296349 ], [ 121.510024, 31.289276 ], [ 121.515793, 31.283664 ], [ 121.518379, 31.274946 ], [ 121.523697, 31.26457 ], [ 121.526701, 31.259038 ], [ 121.53116, 31.253815 ], [ 121.540104, 31.24394 ], [ 121.543527, 31.235851 ], [ 121.548664, 31.22751 ], [ 121.550998, 31.221002 ], [ 121.557634, 31.203575 ], [ 121.559226, 31.191158 ], [ 121.561355, 31.182762 ], [ 121.566414, 31.16911 ], [ 121.570914, 31.158131 ], [ 121.567306, 31.134239 ], [ 121.567613, 31.114129 ], [ 121.570547, 31.102554 ], [ 121.580589, 31.091115 ], [ 121.58596, 31.07186 ], [ 121.588988, 31.054396 ], [ 121.596083, 31.037305 ] ] } },
{ "type": "Feature", "properties": { "line_name": "磁浮线", "color": "#008187", "n_stations": 2 }, "geometry": { "type": "LineString", "coordinates": [ [ 121.805591, 31.150958 ], [ 121.557634, 31.203575 ] ] } },
{ "type": "Feature", "properties": { "line_name": "浦江线", "color": "#B5B5B6", "n_stations": 6 }, "geometry": { "type": "LineString", "coordinates": [ [ 121.512272, 31.061427 ], [ 121.527389, 31.056108 ], [ 121.530323, 31.047956 ], [ 121.530591, 31.040993 ], [ 121.532093, 31.03039 ], [ 121.524558, 31.025245 ] ] } },
{ "type": "Feature", "properties": { "line_name": "市域机场线", "color": "#99ADAC", "n_stations": 7 }, "geometry": { "type": "LineString", "coordinates": [ [ 121.324443, 31.194055 ], [ 121.334596, 31.149766 ], [ 121.44431, 31.109817 ], [ 121.486854, 31.126039 ], [ 121.614894, 31.146808 ], [ 121.67973, 31.156182 ], [ 121.805591, 31.150958 ] ] } }
]
}
