{
"type": "FeatureCollection",
"name": "station_flow_geo",
"crs": { "type": "name", "properties": { "name": "urn:ogc:def:crs:OGC:1.3:CRS84" } },
"features": [
{ "type": "Feature", "properties": { "stationID": 2048, "name": "Longcao Road", "lon": 121.43971557499999, "lat": 31.171622034, "全天总客流": 7813847, "早高峰客流": 2114087, "晚高峰客流": 1433836, "工作日日均": 71724.459770114947, "周末日均": 43717.194444444445 }, "geometry": { "type": "Point", "coordinates": [ 121.439715575, 31.171622034 ] } },
{ "type": "Feature", "properties": { "stationID": 2049, "name": "Pudian Road", "lon": 121.527848943, "lat": 31.224457288000004, "全天总客流": 10738825, "早高峰客流": 2652159, "晚高峰客流": 2772319, "工作日日均": 110253.18390804598, "周末日均": 31855.5 }, "geometry": { "type": "Point", "coordinates": [ 121.527848943, 31.224457288 ] } },
{ "type": "Feature", "properties": { "stationID": 2050, "name": "Jing'an Temple", "lon": 121.441840398, "lat": 31.225058466, "全天总客流": 23433472, "早高峰客流": 3273804, "晚高峰客流": 4901288, "工作日日均": 210126.908045977, "周末日均": 143123.08333333334 }, "geometry": { "type": "Point", "coordinates": [ 121.441840398, 31.225058466 ] } },
{ "type": "Feature", "properties": { "stationID": 2051, "name": "Yishan Road", "lon": 121.42261559400001, "lat": 31.188486856000001, "全天总客流": 12790468, "早高峰客流": 2363826, "晚高峰客流": 2907920, "工作日日均": 118351.1264367816, "周末日均": 69275.555555555562 }, "geometry": { "type": "Point", "coordinates": [ 121.422615594, 31.188486856 ] } },
{ "type": "Feature", "properties": { "stationID": 2052, "name": "Longyang Road", "lon": 121.552971357, "lat": 31.205156342, "全天总客流": 11498772, "早高峰客流": 2501413, "晚高峰客流": 2347464, "工作日日均": 100525.91954022988, "周末日均": 76472.694444444438 }, "geometry": { "type": "Point", "coordinates": [ 121.552971357, 31.205156342 ] } },
{ "type": "Feature", "properties": { "stationID": 2053, "name": "Xintiandi", "lon": 121.470561773, "lat": 31.218292459000001, "全天总客流": 5813572, "早高峰客流": 736602, "晚高峰客流": 1166089, "工作日日均": 49412.160919540227, "周末日均": 42075.388888888891 }, "geometry": { "type": "Point", "coordinates": [ 121.470561773, 31.218292459 ] } },
{ "type": "Feature", "properties": { "stationID": 2054, "name": "Jiangsu Road", "lon": 121.427966595, "lat": 31.221768963, "全天总客流": 11948298, "早高峰客流": 2487920, "晚高峰客流": 2605764, "工作日日均": 113135.36781609197, "周末日均": 58486.694444444445 }, "geometry": { "type": "Point", "coordinates": [ 121.427966595, 31.221768963 ] } },
{ "type": "Feature", "properties": { "stationID": 2055, "name": "Caoyang Road", "lon": 121.413156251, "lat": 31.241192686000002, "全天总客流": 10516816, "早高峰客流": 2383759, "晚高峰客流": 1989056, "工作日日均": 96759.149425287367, "周末日均": 58299.166666666657 }, "geometry": { "type": "Point", "coordinates": [ 121.413156251, 31.241192686 ] } },
{ "type": "Feature", "properties": { "stationID": 2056, "name": "South Shaanxi Road", "lon": 121.455464091, "lat": 31.21914496, "全天总客流": 16705852, "早高峰客流": 2139928, "晚高峰客流": 3248941, "工作日日均": 143836.54022988505, "周末日均": 116446.47222222222 }, "geometry": { "type": "Point", "coordinates": [ 121.455464091, 31.21914496 ] } },
{ "type": "Feature", "properties": { "stationID": 2057, "name": "Longde Road", "lon": 121.41883672599999, "lat": 31.232586008999998, "全天总客流": 3956480, "早高峰客流": 863988, "晚高峰客流": 757811, "工作日日均": 36487.275862068956, "周末日均": 21724.638888888891 }, "geometry": { "type": "Point", "coordinates": [ 121.418836726, 31.232586009 ] } },
{ "type": "Feature", "properties": { "stationID": 508, "name": "Jianchuan Road", "lon": 121.41196261899999, "lat": 31.028392219000001, "全天总客流": 2174528, "早高峰客流": 561931, "晚高峰客流": 354822, "工作日日均": 18984.298850574716, "周末日均": 14524.833333333334 }, "geometry": { "type": "Point", "coordinates": [ 121.411962619, 31.028392219 ] } },
{ "type": "Feature", "properties": { "stationID": 1043, "name": "Hongqiao Terminal 1", "lon": 121.34259180399999, "lat": 31.193518019000003, "全天总客流": 1631336, "早高峰客流": 353489, "晚高峰客流": 310497, "工作日日均": 14913.149425287356, "周末日均": 9274.7777777777756 }, "geometry": { "type": "Point", "coordinates": [ 121.342591804, 31.193518019 ] } },
{ "type": "Feature", "properties": { "stationID": 1044, "name": "Shanghai Zoo", "lon": 121.36352922899999, "lat": 31.192230792, "全天总客流": 2179425, "早高峰客流": 455449, "晚高峰客流": 301229, "工作日日均": 18298.448275862069, "周末日均": 16318.333333333334 }, "geometry": { "type": "Point", "coordinates": [ 121.363529229, 31.192230792 ] } },
{ "type": "Feature", "properties": { "stationID": 1045, "name": "Longxi Road", "lon": 121.37524445699999, "lat": 31.196193522000002, "全天总客流": 2078099, "早高峰客流": 478547, "晚高峰客流": 401498, "工作日日均": 18801.80459770115, "周末日均": 12287.277777777776 }, "geometry": { "type": "Point", "coordinates": [ 121.375244457, 31.196193522 ] } },
{ "type": "Feature", "properties": { "stationID": 512, "name": "Wenjing Road", "lon": 121.376150158, "lat": 31.005526962000001, "全天总客流": 505284, "早高峰客流": 180874, "晚高峰客流": 112932, "工作日日均": 5188.3448275862074, "周末日均": 1497.1666666666667 }, "geometry": { "type": "Point", "coordinates": [ 121.376150158, 31.005526962 ] } },
{ "type": "Feature", "properties": { "stationID": 1047, "name": "Yili Road", "lon": 121.39921421, "lat": 31.201064069000001, "全天总客流": 3981310, "早高峰客流": 944969, "晚高峰客流": 993822, "工作日日均": 39010.678160919539, "周末日均": 16316.138888888889 }, "geometry": { "type": "Point", "coordinates": [ 121.39921421, 31.201064069 ] } },
{ "type": "Feature", "properties": { "stationID": 1048, "name": "Songyuan Road", "lon": 121.40754328600001, "lat": 31.198348293, "全天总客流": 3238584, "早高峰客流": 790381, "晚高峰客流": 687130, "工作日日均": 30579.885057471263, "周末日均": 16059.277777777776 }, "geometry": { "type": "Point", "coordinates": [ 121.407543286, 31.198348293 ] } },
{ "type": "Feature", "properties": { "stationID": 1628, "name": "Shanghai Wild Animal Park", "lon": 121.695438606, "lat": 31.052487249, "全天总客流": 1726171, "早高峰客流": 416781, "晚高峰客流": 254916, "工作日日均": 14284.333333333334, "周末日均": 13428.722222222224 }, "geometry": { "type": "Point", "coordinates": [ 121.695438606, 31.052487249 ] } },
{ "type": "Feature", "properties": { "stationID": 943, "name": "Middle Yanggao Road", "lon": 121.544387644, "lat": 31.229674097, "全天总客流": 5243461, "早高峰客流": 1411904, "晚高峰客流": 1090445, "工作日日均": 50541.3908045977, "周末日均": 23510.0 }, "geometry": { "type": "Point", "coordinates": [ 121.544387644, 31.229674097 ] } },
{ "type": "Feature", "properties": { "stationID": 1626, "name": "Hangtou East", "lon": 121.613286958, "lat": 31.05724005, "全天总客流": 888357, "早高峰客流": 282231, "晚高峰客流": 133485, "工作日日均": 7928.0919540229888, "周末日均": 5517.0277777777774 }, "geometry": { "type": "Point", "coordinates": [ 121.613286958, 31.05724005 ] } },
{ "type": "Feature", "properties": { "stationID": 1055, "name": "Yuyuan Garden", "lon": 121.482864468, "lat": 31.229964559000003, "全天总客流": 7164509, "早高峰客流": 1089133, "晚高峰客流": 1408247, "工作日日均": 59623.517241379312, "周末日均": 54923.972222222219 }, "geometry": { "type": "Point", "coordinates": [ 121.482864468, 31.229964559 ] } },
{ "type": "Feature", "properties": { "stationID": 1058, "name": "North Sichuan Road", "lon": 121.47964206100001, "lat": 31.253898054, "全天总客流": 5016102, "早高峰客流": 1102174, "晚高峰客流": 1095482, "工作日日均": 48811.080459770114, "周末日均": 21376.055555555555 }, "geometry": { "type": "Point", "coordinates": [ 121.479642061, 31.253898054 ] } },
{ "type": "Feature", "properties": { "stationID": 1627, "name": "Xinchang", "lon": 121.644868866, "lat": 31.04780769, "全天总客流": 2549089, "早高峰客流": 634944, "晚高峰客流": 423229, "工作日日均": 21760.712643678158, "周末日均": 18219.638888888891 }, "geometry": { "type": "Point", "coordinates": [ 121.644868866, 31.04780769 ] } },
{ "type": "Feature", "properties": { "stationID": 1060, "name": "Youdian Xincun", "lon": 121.489789828, "lat": 31.270427704, "全天总客流": 2985278, "早高峰客流": 721255, "晚高峰客流": 539436, "工作日日均": 26839.448275862069, "周末日均": 18062.388888888891 }, "geometry": { "type": "Point", "coordinates": [ 121.489789828, 31.270427704 ] } },
{ "type": "Feature", "properties": { "stationID": 1062, "name": "Tongji University", "lon": 121.501792382, "lat": 31.283944779, "全天总客流": 3819290, "早高峰客流": 843977, "晚高峰客流": 717251, "工作日日均": 33435.942528735635, "周末日均": 25287.861111111109 }, "geometry": { "type": "Point", "coordinates": [ 121.501792382, 31.283944779 ] } },
{ "type": "Feature", "properties": { "stationID": 1064, "name": "Wujiaochang", "lon": 121.510067542, "lat": 31.2997292, "全天总客流": 5236797, "早高峰客流": 883792, "晚高峰客流": 1000413, "工作日日均": 42881.367816091952, "周末日均": 41836.611111111109 }, "geometry": { "type": "Point", "coordinates": [ 121.510067542, 31.2997292 ] } },
{ "type": "Feature", "properties": { "stationID": 1065, "name": "Jiangwan Stadium", "lon": 121.509729601, "lat": 31.305442827, "全天总客流": 6078893, "早高峰客流": 1116654, "晚高峰客流": 1185970, "工作日日均": 52603.551724137928, "周末日均": 41732.888888888891 }, "geometry": { "type": "Point", "coordinates": [ 121.509729601, 31.305442827 ] } },
{ "type": "Feature", "properties": { "stationID": 1066, "name": "Sanmen Road", "lon": 121.50401182, "lat": 31.315050515, "全天总客流": 1366543, "早高峰客流": 369634, "晚高峰客流": 290972, "工作日日均": 13257.620689655172, "周末日均": 5920.2777777777774 }, "geometry": { "type": "Point", "coordinates": [ 121.50401182, 31.315050515 ] } },
{ "type": "Feature", "properties": { "stationID": 1067, "name": "East Yingao Road", "lon": 121.502525459, "lat": 31.323799384000001, "全天总客流": 1034165, "早高峰客流": 320969, "晚高峰客流": 189127, "工作日日均": 9579.4482758620688, "周末日均": 5576.4722222222226 }, "geometry": { "type": "Point", "coordinates": [ 121.502525459, 31.323799384 ] } },
{ "type": "Feature", "properties": { "stationID": 1068, "name": "New Jiangwan City", "lon": 121.502697658, "lat": 31.33112066, "全天总客流": 2531283, "早高峰客流": 728046, "晚高峰客流": 444642, "工作日日均": 22896.643678160919, "周末日均": 14979.861111111111 }, "geometry": { "type": "Point", "coordinates": [ 121.502697658, 31.33112066 ] } },
{ "type": "Feature", "properties": { "stationID": 1629, "name": "Huinan", "lon": 121.757556095, "lat": 31.055964544999998, "全天总客流": 4304770, "早高峰客流": 922496, "晚高峰客流": 679509, "工作日日均": 36420.735632183911, "周末日均": 31560.166666666668 }, "geometry": { "type": "Point", "coordinates": [ 121.757556095, 31.055964545 ] } },
{ "type": "Feature", "properties": { "stationID": 1246, "name": "Donglu Road", "lon": 121.57507366, "lat": 31.284688952, "全天总客流": 2649063, "早高峰客流": 825770, "晚高峰客流": 420649, "工作日日均": 23993.436781609194, "周末日均": 15600.944444444443 }, "geometry": { "type": "Point", "coordinates": [ 121.57507366, 31.284688952 ] } },
{ "type": "Feature", "properties": { "stationID": 513, "name": "Minhang Development Zone", "lon": 121.365118845, "lat": 31.002572281, "全天总客流": 902057, "早高峰客流": 259780, "晚高峰客流": 148352, "工作日日均": 8051.1494252873563, "周末日均": 5600.1944444444443 }, "geometry": { "type": "Point", "coordinates": [ 121.365118845, 31.002572281 ] } },
{ "type": "Feature", "properties": { "stationID": 1630, "name": "Huinan East", "lon": 121.78952397099999, "lat": 31.02841678, "全天总客流": 534569, "早高峰客流": 167185, "晚高峰客流": 66153, "工作日日均": 4801.0, "周末日均": 3246.7222222222222 }, "geometry": { "type": "Point", "coordinates": [ 121.789523971, 31.02841678 ] } },
{ "type": "Feature", "properties": { "stationID": 837, "name": "Zhongxing Road", "lon": 121.46450070100001, "lat": 31.255223204, "全天总客流": 3966913, "早高峰客流": 861184, "晚高峰客流": 689589, "工作日日均": 34835.620689655174, "周末日均": 26005.944444444445 }, "geometry": { "type": "Point", "coordinates": [ 121.464500701, 31.255223204 ] } },
{ "type": "Feature", "properties": { "stationID": 1161, "name": "Xiuyan Road", "lon": 121.594253458, "lat": 31.140388537, "全天总客流": 3087217, "早高峰客流": 873656, "晚高峰客流": 441373, "工作日日均": 26762.885057471263, "周末日均": 21079.055555555555 }, "geometry": { "type": "Point", "coordinates": [ 121.594253458, 31.140388537 ] } },
{ "type": "Feature", "properties": { "stationID": 1631, "name": "Shuyuan", "lon": 121.846216134, "lat": 30.961601584, "全天总客流": 1063520, "早高峰客流": 210278, "晚高峰客流": 161556, "工作日日均": 8692.1609195402307, "周末日均": 8536.1666666666661 }, "geometry": { "type": "Point", "coordinates": [ 121.846216134, 30.961601584 ] } },
{ "type": "Feature", "properties": { "stationID": 1632, "name": "Lingang Avenue", "lon": 121.90670309, "lat": 30.925884482000001, "全天总客流": 703947, "早高峰客流": 107972, "晚高峰客流": 98403, "工作日日均": 5476.5287356321842, "周末日均": 6319.1388888888887 }, "geometry": { "type": "Point", "coordinates": [ 121.90670309, 30.925884482 ] } },
{ "type": "Feature", "properties": { "stationID": 1159, "name": "Yuqiao", "lon": 121.56668663400001, "lat": 31.160429607000001, "全天总客流": 3667724, "早高峰客流": 991745, "晚高峰客流": 636043, "工作日日均": 32574.655172413797, "周末日均": 23159.138888888891 }, "geometry": { "type": "Point", "coordinates": [ 121.566686634, 31.160429607 ] } },
{ "type": "Feature", "properties": { "stationID": 2031, "name": "Madang Road", "lon": 121.472724523, "lat": 31.211562334, "全天总客流": 5281162, "早高峰客流": 1019812, "晚高峰客流": 1073840, "工作日日均": 48474.494252873563, "周末日均": 29552.25 }, "geometry": { "type": "Point", "coordinates": [ 121.472724523, 31.211562334 ] } },
{ "type": "Feature", "properties": { "stationID": 1622, "name": "Middle Huaxia Road", "lon": 121.57885718599999, "lat": 31.178233461000001, "全天总客流": 410056, "早高峰客流": 114201, "晚高峰客流": 110631, "工作日日均": 3933.1724137931033, "周末日均": 1885.2777777777776 }, "geometry": { "type": "Point", "coordinates": [ 121.578857186, 31.178233461 ] } },
{ "type": "Feature", "properties": { "stationID": 1156, "name": "East Sanlin", "lon": 121.51866138600001, "lat": 31.148597133000003, "全天总客流": 2847433, "早高峰客流": 825548, "晚高峰客流": 478758, "工作日日均": 25527.333333333328, "周末日均": 17404.305555555555 }, "geometry": { "type": "Point", "coordinates": [ 121.518661386, 31.148597133 ] } },
{ "type": "Feature", "properties": { "stationID": 1162, "name": "Kangxin Highway", "lon": 121.61303024199999, "lat": 31.132655073, "全天总客流": 1640701, "早高峰客流": 499876, "晚高峰客流": 289551, "工作日日均": 14331.896551724138, "周末日均": 10939.611111111111 }, "geometry": { "type": "Point", "coordinates": [ 121.613030242, 31.132655073 ] } },
{ "type": "Feature", "properties": { "stationID": 1624, "name": "East Zhoupu", "lon": 121.602754092, "lat": 31.112309544, "全天总客流": 3242925, "早高峰客流": 838068, "晚高峰客流": 558471, "工作日日均": 28552.896551724138, "周末日均": 21078.416666666668 }, "geometry": { "type": "Point", "coordinates": [ 121.602754092, 31.112309544 ] } },
{ "type": "Feature", "properties": { "stationID": 1625, "name": "Hesha Hangcheng", "lon": 121.607093362, "lat": 31.079974585, "全天总客流": 3370165, "早高峰客流": 999717, "晚高峰客流": 466912, "工作日日均": 30259.321839080461, "周末日均": 20489.0 }, "geometry": { "type": "Point", "coordinates": [ 121.607093362, 31.079974585 ] } },
{ "type": "Feature", "properties": { "stationID": 1114, "name": "Huaqiao", "lon": 121.099702972, "lat": 31.300398755, "全天总客流": 2769248, "早高峰客流": 658105, "晚高峰客流": 383881, "工作日日均": 23000.816091954024, "周末日均": 21338.25 }, "geometry": { "type": "Point", "coordinates": [ 121.099702972, 31.300398755 ] } },
{ "type": "Feature", "properties": { "stationID": 1115, "name": "Guangming Road", "lon": 121.112634001, "lat": 31.298066751, "全天总客流": 1247337, "早高峰客流": 281593, "晚高峰客流": 202171, "工作日日均": 10425.425287356322, "周末日均": 9453.4722222222244 }, "geometry": { "type": "Point", "coordinates": [ 121.112634001, 31.298066751 ] } },
{ "type": "Feature", "properties": { "stationID": 1116, "name": "Zhaofeng Road", "lon": 121.14574032199999, "lat": 31.290849897000001, "全天总客流": 2062020, "早高峰客流": 488827, "晚高峰客流": 297012, "工作日日均": 17479.183908045976, "周末日均": 15036.972222222224 }, "geometry": { "type": "Point", "coordinates": [ 121.145740322, 31.290849897 ] } },
{ "type": "Feature", "properties": { "stationID": 1117, "name": "Anting", "lon": 121.15744934600001, "lat": 31.29037688, "全天总客流": 2889922, "早高峰客流": 569693, "晚高峰客流": 502539, "工作日日均": 24008.931034482761, "周末日均": 22254.027777777777 }, "geometry": { "type": "Point", "coordinates": [ 121.157449346, 31.29037688 ] } },
{ "type": "Feature", "properties": { "stationID": 1118, "name": "Shanghai Automobile City", "lon": 121.176250907, "lat": 31.28729941, "全天总客流": 1177033, "早高峰客流": 300733, "晚高峰客流": 212792, "工作日日均": 10738.666666666666, "周末日均": 6743.583333333333 }, "geometry": { "type": "Point", "coordinates": [ 121.176250907, 31.28729941 ] } },
{ "type": "Feature", "properties": { "stationID": 1119, "name": "East Changji Road", "lon": 121.195922139, "lat": 31.295550108, "全天总客流": 852651, "早高峰客流": 212933, "晚高峰客流": 147635, "工作日日均": 7591.0689655172409, "周末日均": 5339.666666666667 }, "geometry": { "type": "Point", "coordinates": [ 121.195922139, 31.295550108 ] } },
{ "type": "Feature", "properties": { "stationID": 1120, "name": "Shanghai Circuit", "lon": 121.221647938, "lat": 31.33387003, "全天总客流": 746002, "早高峰客流": 172262, "晚高峰客流": 110043, "工作日日均": 5746.64367816092, "周末日均": 6834.5555555555557 }, "geometry": { "type": "Point", "coordinates": [ 121.221647938, 31.33387003 ] } },
{ "type": "Feature", "properties": { "stationID": 1633, "name": "Dishui Lake", "lon": 121.92577716700001, "lat": 30.909305386, "全天总客流": 1281308, "早高峰客流": 198020, "晚高峰客流": 168511, "工作日日均": 9891.0114942528744, "周末日均": 11688.611111111111 }, "geometry": { "type": "Point", "coordinates": [ 121.925777167, 30.909305386 ] } },
{ "type": "Feature", "properties": { "stationID": 1020, "name": "Longbai Xincun", "lon": 121.36579333100001, "lat": 31.179095825000001, "全天总客流": 3613988, "早高峰客流": 840205, "晚高峰客流": 734049, "工作日日均": 32814.632183908048, "周末日均": 21086.527777777777 }, "geometry": { "type": "Point", "coordinates": [ 121.365793331, 31.179095825 ] } },
{ "type": "Feature", "properties": { "stationID": 1153, "name": "Longyao Road", "lon": 121.455131976, "lat": 31.161590898000004, "全天总客流": 1208764, "早高峰客流": 358601, "晚高峰客流": 233851, "工作日日均": 10983.160919540231, "周末日均": 7034.1388888888887 }, "geometry": { "type": "Point", "coordinates": [ 121.455131976, 31.161590898 ] } },
{ "type": "Feature", "properties": { "stationID": 1131, "name": "North Jiading", "lon": 121.232947442, "lat": 31.393474008999998, "全天总客流": 4578889, "早高峰客流": 1092390, "晚高峰客流": 710894, "工作日日均": 39207.551724137928, "周末日均": 32439.777777777777 }, "geometry": { "type": "Point", "coordinates": [ 121.232947442, 31.393474009 ] } },
{ "type": "Feature", "properties": { "stationID": 1132, "name": "West Jiading", "lon": 121.223424041, "lat": 31.379042743000003, "全天总客流": 2914663, "早高峰客流": 728601, "晚高峰客流": 481139, "工作日日均": 25503.068965517243, "周末日均": 19330.444444444445 }, "geometry": { "type": "Point", "coordinates": [ 121.223424041, 31.379042743 ] } },
{ "type": "Feature", "properties": { "stationID": 1133, "name": "Baiyin Road", "lon": 121.24096733099999, "lat": 31.347225544, "全天总客流": 2238890, "早高峰客流": 602649, "晚高峰客流": 367104, "工作日日均": 20288.080459770117, "周末日均": 13161.861111111111 }, "geometry": { "type": "Point", "coordinates": [ 121.240967331, 31.347225544 ] } },
{ "type": "Feature", "properties": { "stationID": 622, "name": "South Lingyan Road", "lon": 121.490806173, "lat": 31.150842633000003, "全天总客流": 1999846, "早高峰客流": 601065, "晚高峰客流": 320391, "工作日日均": 18138.287356321842, "周末日均": 11717.083333333334 }, "geometry": { "type": "Point", "coordinates": [ 121.490806173, 31.150842633 ] } },
{ "type": "Feature", "properties": { "stationID": 623, "name": "Shangnan Road", "lon": 121.502354461, "lat": 31.15110376, "全天总客流": 1842291, "早高峰客流": 558408, "晚高峰客流": 329011, "工作日日均": 16837.482758620688, "周末日均": 10484.166666666666 }, "geometry": { "type": "Point", "coordinates": [ 121.502354461, 31.15110376 ] } },
{ "type": "Feature", "properties": { "stationID": 112, "name": "Waihuanlu", "lon": 121.38849586000001, "lat": 31.12298734, "全天总客流": 3577248, "早高峰客流": 1041667, "晚高峰客流": 602751, "工作日日均": 32623.022988505749, "周末日均": 20529.027777777777 }, "geometry": { "type": "Point", "coordinates": [ 121.38849586, 31.12298734 ] } },
{ "type": "Feature", "properties": { "stationID": 113, "name": "Lianhua Road", "lon": 121.39828804, "lat": 31.132883498999998, "全天总客流": 12379995, "早高峰客流": 2889088, "晚高峰客流": 2121751, "工作日日均": 107399.70114942528, "周末日均": 84339.472222222219 }, "geometry": { "type": "Point", "coordinates": [ 121.39828804, 31.132883499 ] } },
{ "type": "Feature", "properties": { "stationID": 114, "name": "Jinjiang Amusement Park", "lon": 121.40949468300001, "lat": 31.144053983000003, "全天总客流": 5413542, "早高峰客流": 1297414, "晚高峰客流": 941865, "工作日日均": 47270.379310344826, "周末日均": 36139.416666666657 }, "geometry": { "type": "Point", "coordinates": [ 121.409494683, 31.144053983 ] } },
{ "type": "Feature", "properties": { "stationID": 1139, "name": "Wuwei Road", "lon": 121.360455468, "lat": 31.278154062, "全天总客流": 458351, "早高峰客流": 116928, "晚高峰客流": 84329, "工作日日均": 4181.5172413793107, "周末日均": 2626.6388888888887 }, "geometry": { "type": "Point", "coordinates": [ 121.360455468, 31.278154062 ] } },
{ "type": "Feature", "properties": { "stationID": 628, "name": "Linyi Xincun", "lon": 121.512700268, "lat": 31.195301069, "全天总客流": 2444170, "早高峰客流": 688003, "晚高峰客流": 493634, "工作日日均": 22916.494252873563, "周末日均": 12512.083333333334 }, "geometry": { "type": "Point", "coordinates": [ 121.512700268, 31.195301069 ] } },
{ "type": "Feature", "properties": { "stationID": 629, "name": "Shanghai Children's Medical Center", "lon": 121.51890689, "lat": 31.204842460999998, "全天总客流": 2135131, "早高峰客流": 516386, "晚高峰客流": 332603, "工作日日均": 19503.540229885057, "周末日均": 12175.638888888889 }, "geometry": { "type": "Point", "coordinates": [ 121.51890689, 31.204842461 ] } },
{ "type": "Feature", "properties": { "stationID": 1142, "name": "Shanghai West Railway Station", "lon": 121.396085821, "lat": 31.264540771, "全天总客流": 4683456, "早高峰客流": 1251617, "晚高峰客流": 825053, "工作日日均": 42043.586206896551, "周末日均": 28490.666666666668 }, "geometry": { "type": "Point", "coordinates": [ 121.396085821, 31.264540771 ] } },
{ "type": "Feature", "properties": { "stationID": 119, "name": "Hengshan Road", "lon": 121.441944506, "lat": 31.206619041, "全天总客流": 2452086, "早高峰客流": 441078, "晚高峰客流": 489202, "工作日日均": 21655.551724137931, "周末日均": 15779.25 }, "geometry": { "type": "Point", "coordinates": [ 121.441944506, 31.206619041 ] } },
{ "type": "Feature", "properties": { "stationID": 1144, "name": "Fengqiao Road", "lon": 121.406511864, "lat": 31.243749563000002, "全天总客流": 3701838, "早高峰客流": 868480, "晚高峰客流": 663696, "工作日日均": 33022.6091954023, "周末日均": 23024.194444444445 }, "geometry": { "type": "Point", "coordinates": [ 121.406511864, 31.243749563 ] } },
{ "type": "Feature", "properties": { "stationID": 633, "name": "Yuanshen Sports Center", "lon": 121.530378145, "lat": 31.235143094000001, "全天总客流": 2578623, "早高峰客流": 540446, "晚高峰客流": 519230, "工作日日均": 23527.6091954023, "周末日均": 14770.027777777776 }, "geometry": { "type": "Point", "coordinates": [ 121.530378145, 31.235143094 ] } },
{ "type": "Feature", "properties": { "stationID": 634, "name": "Minsheng Road", "lon": 121.53961142, "lat": 31.238147385000001, "全天总客流": 2274212, "早高峰客流": 516657, "晚高峰客流": 433301, "工作日日均": 20306.19540229885, "周末日均": 14099.25 }, "geometry": { "type": "Point", "coordinates": [ 121.53961142, 31.238147385 ] } },
{ "type": "Feature", "properties": { "stationID": 635, "name": "Beiyangjing Road", "lon": 121.547873193, "lat": 31.24121507, "全天总客流": 2193154, "早高峰客流": 500660, "晚高峰客流": 393279, "工作日日均": 19512.471264367818, "周末日均": 13765.805555555557 }, "geometry": { "type": "Point", "coordinates": [ 121.547873193, 31.24121507 ] } },
{ "type": "Feature", "properties": { "stationID": 124, "name": "Xinzha Road", "lon": 121.463493379, "lat": 31.24067856, "全天总客流": 3416260, "早高峰客流": 671337, "晚高峰客流": 673518, "工作日日均": 31038.402298850571, "周末日均": 19886.638888888891 }, "geometry": { "type": "Point", "coordinates": [ 121.463493379, 31.24067856 ] } },
{ "type": "Feature", "properties": { "stationID": 637, "name": "Yunshan Road", "lon": 121.568640821, "lat": 31.252628085000001, "全天总客流": 3079761, "早高峰客流": 797921, "晚高峰客流": 553282, "工作日日均": 27517.252873563219, "周末日均": 19048.888888888891 }, "geometry": { "type": "Point", "coordinates": [ 121.568640821, 31.252628085 ] } },
{ "type": "Feature", "properties": { "stationID": 638, "name": "Jinqiao Road", "lon": 121.577716757, "lat": 31.259449703000001, "全天总客流": 5101747, "早高峰客流": 1156842, "晚高峰客流": 967768, "工作日日均": 44623.091954022988, "周末日均": 33876.055555555555 }, "geometry": { "type": "Point", "coordinates": [ 121.577716757, 31.259449703 ] } },
{ "type": "Feature", "properties": { "stationID": 127, "name": "Zhongshan North Road", "lon": 121.454688131, "lat": 31.260741938, "全天总客流": 4965157, "早高峰客流": 1036128, "晚高峰客流": 898856, "工作日日均": 43434.712643678162, "周末日均": 32953.805555555555 }, "geometry": { "type": "Point", "coordinates": [ 121.454688131, 31.260741938 ] } },
{ "type": "Feature", "properties": { "stationID": 128, "name": "Yanchang Road", "lon": 121.450712025, "lat": 31.273307641, "全天总客流": 7860909, "早高峰客流": 1604583, "晚高峰客流": 1321609, "工作日日均": 69966.126436781604, "周末日均": 49273.777777777781 }, "geometry": { "type": "Point", "coordinates": [ 121.450712025, 31.273307641 ] } },
{ "type": "Feature", "properties": { "stationID": 129, "name": "Shanghai Circus City", "lon": 121.44734166800001, "lat": 31.281257251, "全天总客流": 6274126, "早高峰客流": 1441566, "晚高峰客流": 1331526, "工作日日均": 58604.356321839077, "周末日均": 32654.083333333328 }, "geometry": { "type": "Point", "coordinates": [ 121.447341668, 31.281257251 ] } },
{ "type": "Feature", "properties": { "stationID": 130, "name": "Wenshui Road", "lon": 121.44558749700001, "lat": 31.29447578, "全天总客流": 5998347, "早高峰客流": 1463143, "晚高峰客流": 1341886, "工作日日均": 56680.034482758623, "周末日均": 29644.0 }, "geometry": { "type": "Point", "coordinates": [ 121.445587497, 31.29447578 ] } },
{ "type": "Feature", "properties": { "stationID": 131, "name": "Pengpu Xincun", "lon": 121.44408289899999, "lat": 31.30850675, "全天总客流": 8397712, "早高峰客流": 2048510, "晚高峰客流": 1389519, "工作日日均": 74586.413793103449, "周末日均": 53019.277777777781 }, "geometry": { "type": "Point", "coordinates": [ 121.444082899, 31.30850675 ] } },
{ "type": "Feature", "properties": { "stationID": 132, "name": "Gongkang Road", "lon": 121.44245262699999, "lat": 31.320858824999998, "全天总客流": 6700228, "早高峰客流": 1735524, "晚高峰客流": 1143191, "工作日日均": 59172.954022988502, "周末日均": 43116.138888888891 }, "geometry": { "type": "Point", "coordinates": [ 121.442452627, 31.320858825 ] } },
{ "type": "Feature", "properties": { "stationID": 133, "name": "Tonghe Xincun", "lon": 121.436929642, "lat": 31.332913486, "全天总客流": 7118580, "早高峰客流": 2075387, "晚高峰客流": 1118459, "工作日日均": 64320.643678160923, "周末日均": 42296.777777777781 }, "geometry": { "type": "Point", "coordinates": [ 121.436929642, 31.332913486 ] } },
{ "type": "Feature", "properties": { "stationID": 134, "name": "Hulan Road", "lon": 121.43310605400001, "lat": 31.341600755999998, "全天总客流": 3137204, "早高峰客流": 1017247, "晚高峰客流": 499852, "工作日日均": 29280.482758620688, "周末日均": 16383.388888888889 }, "geometry": { "type": "Point", "coordinates": [ 121.433106054, 31.341600756 ] } },
{ "type": "Feature", "properties": { "stationID": 135, "name": "Gongfu Xincun", "lon": 121.42948880199999, "lat": 31.356902294000001, "全天总客流": 5806759, "早高峰客流": 1654384, "晚高峰客流": 927647, "工作日日均": 52496.45977011494, "周末日均": 34432.416666666664 }, "geometry": { "type": "Point", "coordinates": [ 121.429488802, 31.356902294 ] } },
{ "type": "Feature", "properties": { "stationID": 136, "name": "Bao'an Highway", "lon": 121.42634765, "lat": 31.371233449000002, "全天总客流": 4033619, "早高峰客流": 1267263, "晚高峰客流": 592571, "工作日日均": 36378.6091954023, "周末日均": 24130.0 }, "geometry": { "type": "Point", "coordinates": [ 121.42634765, 31.371233449 ] } },
{ "type": "Feature", "properties": { "stationID": 137, "name": "West Youyi Road", "lon": 121.423323482, "lat": 31.382958896000002, "全天总客流": 1430127, "早高峰客流": 419174, "晚高峰客流": 218435, "工作日日均": 12854.126436781609, "周末日均": 8661.6111111111113 }, "geometry": { "type": "Point", "coordinates": [ 121.423323482, 31.382958896 ] } },
{ "type": "Feature", "properties": { "stationID": 138, "name": "Fujin Road", "lon": 121.420030689, "lat": 31.393999581, "全天总客流": 5062450, "早高峰客流": 1432303, "晚高峰客流": 732851, "工作日日均": 44092.747126436792, "周末日均": 34066.138888888891 }, "geometry": { "type": "Point", "coordinates": [ 121.420030689, 31.393999581 ] } },
{ "type": "Feature", "properties": { "stationID": 1163, "name": "Disney Resort", "lon": 121.663732891, "lat": 31.143438744000001, "全天总客流": 2676661, "早高峰客流": 481238, "晚高峰客流": 327978, "工作日日均": 19335.022988505749, "周末日均": 27625.388888888891 }, "geometry": { "type": "Point", "coordinates": [ 121.663732891, 31.143438744 ] } },
{ "type": "Feature", "properties": { "stationID": 1134, "name": "Jiading New City", "lon": 121.249887524, "lat": 31.332106143000001, "全天总客流": 3650623, "早高峰客流": 1012050, "晚高峰客流": 617033, "工作日日均": 32926.436781609198, "周末日均": 21833.972222222223 }, "geometry": { "type": "Point", "coordinates": [ 121.249887524, 31.332106143 ] } },
{ "type": "Feature", "properties": { "stationID": 1135, "name": "Malu", "lon": 121.272439838, "lat": 31.321597357000002, "全天总客流": 2774456, "早高峰客流": 755997, "晚高峰客流": 448647, "工作日日均": 24532.816091954024, "周末日均": 17780.583333333332 }, "geometry": { "type": "Point", "coordinates": [ 121.272439838, 31.321597357 ] } },
{ "type": "Feature", "properties": { "stationID": 1323, "name": "Fengzhuang", "lon": 121.350698505, "lat": 31.244292623000003, "全天总客流": 3400890, "早高峰客流": 962069, "晚高峰客流": 564214, "工作日日均": 30708.735632183907, "周末日均": 20256.388888888891 }, "geometry": { "type": "Point", "coordinates": [ 121.350698505, 31.244292623 ] } },
{ "type": "Feature", "properties": { "stationID": 624, "name": "West Huaxia Road", "lon": 121.510363399, "lat": 31.15192965, "全天总客流": 1559756, "早高峰客流": 489748, "晚高峰客流": 246020, "工作日日均": 14692.666666666666, "周末日均": 7819.2777777777774 }, "geometry": { "type": "Point", "coordinates": [ 121.510363399, 31.15192965 ] } },
{ "type": "Feature", "properties": { "stationID": 1051, "name": "Shanghai Library", "lon": 121.441741894, "lat": 31.211194198000001, "全天总客流": 2827539, "早高峰客流": 469094, "晚高峰客流": 515759, "工作日日均": 23955.632183908045, "周末日均": 20649.972222222223 }, "geometry": { "type": "Point", "coordinates": [ 121.441741894, 31.211194198 ] } },
{ "type": "Feature", "properties": { "stationID": 625, "name": "Gaoqing Road", "lon": 121.51114379800001, "lat": 31.161859926000002, "全天总客流": 2169409, "早高峰客流": 694024, "晚高峰客流": 371804, "工作日日均": 20060.103448275862, "周末日均": 11782.777777777776 }, "geometry": { "type": "Point", "coordinates": [ 121.511143798, 31.161859926 ] } },
{ "type": "Feature", "properties": { "stationID": 1250, "name": "Shenjiang Road", "lon": 121.622624106, "lat": 31.282334324000001, "全天总客流": 1348197, "早高峰客流": 401311, "晚高峰客流": 283142, "工作日日均": 12654.25287356322, "周末日均": 6868.8055555555557 }, "geometry": { "type": "Point", "coordinates": [ 121.622624106, 31.282334324 ] } },
{ "type": "Feature", "properties": { "stationID": 1223, "name": "Donglan Road", "lon": 121.387228456, "lat": 31.15770063, "全天总客流": 1613854, "早高峰客流": 473666, "晚高峰客流": 259017, "工作日日均": 14381.827586206897, "周末日均": 10073.194444444443 }, "geometry": { "type": "Point", "coordinates": [ 121.387228456, 31.15770063 ] } },
{ "type": "Feature", "properties": { "stationID": 626, "name": "Dongming Road", "lon": 121.506212539, "lat": 31.174923735, "全天总客流": 2210586, "早高峰客流": 663553, "晚高峰客流": 376642, "工作日日均": 20160.19540229885, "周末日均": 12684.694444444443 }, "geometry": { "type": "Point", "coordinates": [ 121.506212539, 31.174923735 ] } },
{ "type": "Feature", "properties": { "stationID": 824, "name": "Luheng Road", "lon": 121.493805184, "lat": 31.120878108000003, "全天总客流": 5270443, "早高峰客流": 1505098, "晚高峰客流": 869403, "工作日日均": 47284.908045977012, "周末日均": 32129.333333333328 }, "geometry": { "type": "Point", "coordinates": [ 121.493805184, 31.120878108 ] } },
{ "type": "Feature", "properties": { "stationID": 1063, "name": "Guoquan Road", "lon": 121.50566807, "lat": 31.291328446000001, "全天总客流": 3578671, "早高峰客流": 893684, "晚高峰客流": 666474, "工作日日均": 32106.321839080461, "周末日均": 21817.25 }, "geometry": { "type": "Point", "coordinates": [ 121.50566807, 31.291328446 ] } },
{ "type": "Feature", "properties": { "stationID": 1046, "name": "Shuicheng Road", "lon": 121.38734927, "lat": 31.201321803000003, "全天总客流": 3399934, "早高峰客流": 707726, "晚高峰客流": 657576, "工作日日均": 30124.712643678158, "周末日均": 21641.222222222223 }, "geometry": { "type": "Point", "coordinates": [ 121.38734927, 31.201321803 ] } },
{ "type": "Feature", "properties": { "stationID": 1141, "name": "Liziyuan", "lon": 121.385192546, "lat": 31.270865609000001, "全天总客流": 3973695, "早高峰客流": 1036427, "晚高峰客流": 691692, "工作日日均": 35604.022988505749, "周末日均": 24337.361111111109 }, "geometry": { "type": "Point", "coordinates": [ 121.385192546, 31.270865609 ] } },
{ "type": "Feature", "properties": { "stationID": 1220, "name": "Qixin Road", "lon": 121.35721193000001, "lat": 31.132914547, "全天总客流": 3761713, "早高峰客流": 1102667, "晚高峰客流": 711297, "工作日日均": 35566.620689655174, "周末日均": 18539.361111111109 }, "geometry": { "type": "Point", "coordinates": [ 121.35721193, 31.132914547 ] } },
{ "type": "Feature", "properties": { "stationID": 1221, "name": "Hongxin Road", "lon": 121.375669938, "lat": 31.139418878000001, "全天总客流": 1427893, "早高峰客流": 428963, "晚高峰客流": 221225, "工作日日均": 12893.80459770115, "周末日均": 8503.6666666666661 }, "geometry": { "type": "Point", "coordinates": [ 121.375669938, 31.139418878 ] } },
{ "type": "Feature", "properties": { "stationID": 1222, "name": "Gudai Road", "lon": 121.387239321, "lat": 31.142693849, "全天总客流": 1854532, "早高峰客流": 524723, "晚高峰客流": 280544, "工作日日均": 16929.448275862069, "周末日均": 10601.944444444443 }, "geometry": { "type": "Point", "coordinates": [ 121.387239321, 31.142693849 ] } },
{ "type": "Feature", "properties": { "stationID": 1140, "name": "Qilianshan Road", "lon": 121.371234343, "lat": 31.273492779000001, "全天总客流": 3186318, "早高峰客流": 913016, "晚高峰客流": 610777, "工作日日均": 29021.0, "周末日均": 18374.75 }, "geometry": { "type": "Point", "coordinates": [ 121.371234343, 31.273492779 ] } },
{ "type": "Feature", "properties": { "stationID": 1224, "name": "Hongmei Road", "lon": 121.392662297, "lat": 31.162296375, "全天总客流": 3494317, "早高峰客流": 895676, "晚高峰客流": 895925, "工作日日均": 34987.3908045977, "周末日均": 12511.5 }, "geometry": { "type": "Point", "coordinates": [ 121.392662297, 31.162296375 ] } },
{ "type": "Feature", "properties": { "stationID": 1225, "name": "Hongcao Road", "lon": 121.40572841, "lat": 31.166154493000001, "全天总客流": 3896755, "早高峰客流": 990737, "晚高峰客流": 948863, "工作日日均": 38737.022988505749, "周末日均": 14628.722222222224 }, "geometry": { "type": "Point", "coordinates": [ 121.40572841, 31.166154493 ] } },
{ "type": "Feature", "properties": { "stationID": 1226, "name": "Guilin Park", "lon": 121.41528772300001, "lat": 31.169028586, "全天总客流": 2401475, "早高峰客流": 569596, "晚高峰客流": 434623, "工作日日均": 21409.172413793105, "周末日均": 14968.805555555557 }, "geometry": { "type": "Point", "coordinates": [ 121.415287723, 31.169028586 ] } },
{ "type": "Feature", "properties": { "stationID": 1143, "name": "Zhenru", "lon": 121.40259263900001, "lat": 31.252631342000001, "全天总客流": 2312921, "早高峰客流": 621466, "晚高峰客流": 400560, "工作日日均": 20763.908045977008, "周末日均": 14068.361111111111 }, "geometry": { "type": "Point", "coordinates": [ 121.402592639, 31.252631342 ] } },
{ "type": "Feature", "properties": { "stationID": 721, "name": "Meilan Lake", "lon": 121.34525951099999, "lat": 31.403775779, "全天总客流": 3781281, "早高峰客流": 919538, "晚高峰客流": 524910, "工作日日均": 32204.206896551725, "周末日均": 27208.75 }, "geometry": { "type": "Point", "coordinates": [ 121.345259511, 31.403775779 ] } },
{ "type": "Feature", "properties": { "stationID": 722, "name": "Luonan Xincun", "lon": 121.35280146, "lat": 31.39059269, "全天总客流": 2239421, "早高峰客流": 629367, "晚高峰客流": 312369, "工作日日均": 19996.459770114943, "周末日均": 13881.361111111111 }, "geometry": { "type": "Point", "coordinates": [ 121.35280146, 31.39059269 ] } },
{ "type": "Feature", "properties": { "stationID": 723, "name": "Panguang Road", "lon": 121.35159841700001, "lat": 31.365445218000001, "全天总客流": 907582, "早高峰客流": 260753, "晚高峰客流": 118705, "工作日日均": 7912.6781609195396, "周末日均": 6088.3055555555557 }, "geometry": { "type": "Point", "coordinates": [ 121.351598417, 31.365445218 ] } },
{ "type": "Feature", "properties": { "stationID": 724, "name": "Liu Hang", "lon": 121.357774726, "lat": 31.359381323000001, "全天总客流": 2267837, "早高峰客流": 689715, "晚高峰客流": 301363, "工作日日均": 20221.655172413797, "周末日均": 14126.472222222224 }, "geometry": { "type": "Point", "coordinates": [ 121.357774726, 31.359381323 ] } },
{ "type": "Feature", "properties": { "stationID": 725, "name": "Gucun Park", "lon": 121.36832030399999, "lat": 31.34649161, "全天总客流": 4707644, "早高峰客流": 1194105, "晚高峰客流": 732035, "工作日日均": 41675.321839080461, "周末日均": 30052.527777777777 }, "geometry": { "type": "Point", "coordinates": [ 121.368320304, 31.34649161 ] } },
{ "type": "Feature", "properties": { "stationID": 726, "name": "Qihua Road", "lon": 121.368834677, "lat": 31.324270359, "全天总客流": 2427084, "早高峰客流": 727569, "晚高峰客流": 323561, "工作日日均": 21806.666666666668, "周末日均": 14719.555555555557 }, "geometry": { "type": "Point", "coordinates": [ 121.368834677, 31.324270359 ] } },
{ "type": "Feature", "properties": { "stationID": 727, "name": "Shanghai University", "lon": 121.384324697, "lat": 31.322373451000001, "全天总客流": 3693173, "早高峰客流": 866713, "晚高峰客流": 591681, "工作日日均": 31934.528735632182, "周末日均": 25413.027777777777 }, "geometry": { "type": "Point", "coordinates": [ 121.384324697, 31.322373451 ] } },
{ "type": "Feature", "properties": { "stationID": 728, "name": "Nanchen Road", "lon": 121.394081532, "lat": 31.323554776999998, "全天总客流": 1418805, "早高峰客流": 379884, "晚高峰客流": 207586, "工作日日均": 12726.781609195405, "周末日均": 8654.8611111111113 }, "geometry": { "type": "Point", "coordinates": [ 121.394081532, 31.323554777 ] } },
{ "type": "Feature", "properties": { "stationID": 729, "name": "Shangda Road", "lon": 121.404049079, "lat": 31.316758855, "全天总客流": 1970401, "早高峰客流": 595936, "晚高峰客流": 320703, "工作日日均": 18153.068965517243, "周末日均": 10863.444444444443 }, "geometry": { "type": "Point", "coordinates": [ 121.404049079, 31.316758855 ] } },
{ "type": "Feature", "properties": { "stationID": 730, "name": "Changzhong Road", "lon": 121.408605124, "lat": 31.305631244000001, "全天总客流": 3159475, "早高峰客流": 871531, "晚高峰客流": 484298, "工作日日均": 28181.367816091955, "周末日均": 19658.222222222223 }, "geometry": { "type": "Point", "coordinates": [ 121.408605124, 31.305631244 ] } },
{ "type": "Feature", "properties": { "stationID": 731, "name": "Dachang Town", "lon": 121.41160201700001, "lat": 31.29507342, "全天总客流": 2024548, "早高峰客流": 561130, "晚高峰客流": 382232, "工作日日均": 18359.931034482761, "周末日均": 11867.611111111111 }, "geometry": { "type": "Point", "coordinates": [ 121.411602017, 31.29507342 ] } },
{ "type": "Feature", "properties": { "stationID": 732, "name": "Xingzhi Road", "lon": 121.41717470099999, "lat": 31.285986202, "全天总客流": 4611967, "早高峰客流": 1224780, "晚高峰客流": 815087, "工作日日均": 41724.229885057473, "周末日均": 27276.638888888891 }, "geometry": { "type": "Point", "coordinates": [ 121.417174701, 31.285986202 ] } },
{ "type": "Feature", "properties": { "stationID": 733, "name": "Dahua San Road", "lon": 121.418482486, "lat": 31.275723943000003, "全天总客流": 5095534, "早高峰客流": 1215028, "晚高峰客流": 866578, "工作日日均": 45226.620689655167, "周末日均": 32244.944444444445 }, "geometry": { "type": "Point", "coordinates": [ 121.418482486, 31.275723943 ] } },
{ "type": "Feature", "properties": { "stationID": 734, "name": "Xincun Road", "lon": 121.417997974, "lat": 31.26563162, "全天总客流": 4599494, "早高峰客流": 985182, "晚高峰客流": 789228, "工作日日均": 40704.873563218389, "周末日均": 29393.611111111109 }, "geometry": { "type": "Point", "coordinates": [ 121.417997974, 31.26563162 ] } },
{ "type": "Feature", "properties": { "stationID": 735, "name": "Langao Road", "lon": 121.417161444, "lat": 31.257880611000001, "全天总客流": 3424530, "早高峰客流": 666817, "晚高峰客流": 665210, "工作日日均": 30853.04597701149, "周末日均": 20564.305555555555 }, "geometry": { "type": "Point", "coordinates": [ 121.417161444, 31.257880611 ] } },
{ "type": "Feature", "properties": { "stationID": 1248, "name": "North Yanggao Road", "lon": 121.598573379, "lat": 31.282251196000001, "全天总客流": 2142986, "早高峰客流": 604889, "晚高峰客流": 354777, "工作日日均": 19026.977011494251, "周末日均": 13545.527777777776 }, "geometry": { "type": "Point", "coordinates": [ 121.598573379, 31.282251196 ] } },
{ "type": "Feature", "properties": { "stationID": 1249, "name": "Jinjing Road", "lon": 121.61059378500001, "lat": 31.281820276000001, "全天总客流": 2503754, "早高峰客流": 731087, "晚高峰客流": 449943, "工作日日均": 22541.471264367818, "周末日均": 15073.5 }, "geometry": { "type": "Point", "coordinates": [ 121.610593785, 31.281820276 ] } },
{ "type": "Feature", "properties": { "stationID": 738, "name": "Changping Road", "lon": 121.43788726, "lat": 31.235646924000001, "全天总客流": 5607660, "早高峰客流": 1117124, "晚高峰客流": 1114951, "工作日日均": 52392.034482758623, "周末日均": 29154.25 }, "geometry": { "type": "Point", "coordinates": [ 121.43788726, 31.235646924 ] } },
{ "type": "Feature", "properties": { "stationID": 639, "name": "Boxing Road", "lon": 121.58252159600001, "lat": 31.265715972, "全天总客流": 3366158, "早高峰客流": 982340, "晚高峰客流": 571999, "工作日日均": 30061.298850574716, "周末日均": 20856.25 }, "geometry": { "type": "Point", "coordinates": [ 121.582521596, 31.265715972 ] } },
{ "type": "Feature", "properties": { "stationID": 636, "name": "Deping Road", "lon": 121.559841511, "lat": 31.247492601000001, "全天总客流": 3211128, "早高峰客流": 757477, "晚高峰客流": 548421, "工作日日均": 28286.908045977008, "周末日均": 20837.972222222223 }, "geometry": { "type": "Point", "coordinates": [ 121.559841511, 31.247492601 ] } },
{ "type": "Feature", "properties": { "stationID": 234, "name": "East Xujing", "lon": 121.295031968, "lat": 31.190426252999998, "全天总客流": 10250525, "早高峰客流": 2563797, "晚高峰客流": 1630004, "工作日日均": 89489.678160919546, "周末日均": 68470.083333333328 }, "geometry": { "type": "Point", "coordinates": [ 121.295031968, 31.190426253 ] } },
{ "type": "Feature", "properties": { "stationID": 747, "name": "Yuntai Road", "lon": 121.496129096, "lat": 31.18446681, "全天总客流": 2411213, "早高峰客流": 617757, "晚高峰客流": 396124, "工作日日均": 21704.344827586207, "周末日均": 14525.972222222224 }, "geometry": { "type": "Point", "coordinates": [ 121.496129096, 31.18446681 ] } },
{ "type": "Feature", "properties": { "stationID": 237, "name": "Songhong Road", "lon": 121.35534611200001, "lat": 31.22001095, "全天总客流": 11611509, "早高峰客流": 3165526, "晚高峰客流": 2341378, "工作日日均": 110991.57471264368, "周末日均": 54312.277777777781 }, "geometry": { "type": "Point", "coordinates": [ 121.355346112, 31.22001095 ] } },
{ "type": "Feature", "properties": { "stationID": 238, "name": "Beixinjing", "lon": 121.369712386, "lat": 31.218084283000003, "全天总客流": 5214407, "早高峰客流": 1267169, "晚高峰客流": 875883, "工作日日均": 46468.011494252882, "周末日均": 32546.944444444445 }, "geometry": { "type": "Point", "coordinates": [ 121.369712386, 31.218084283 ] } },
{ "type": "Feature", "properties": { "stationID": 239, "name": "Weining Road", "lon": 121.382591045, "lat": 31.216888017, "全天总客流": 5691002, "早高峰客流": 1284442, "晚高峰客流": 1101814, "工作日日均": 51335.620689655167, "周末日均": 34022.305555555555 }, "geometry": { "type": "Point", "coordinates": [ 121.382591045, 31.216888017 ] } },
{ "type": "Feature", "properties": { "stationID": 240, "name": "Loushanguan Road", "lon": 121.39974304099999, "lat": 31.213019401, "全天总客流": 11456389, "早高峰客流": 2336589, "晚高峰客流": 2355600, "工作日日均": 103885.96551724138, "周末日均": 67175.277777777781 }, "geometry": { "type": "Point", "coordinates": [ 121.399743041, 31.213019401 ] } },
{ "type": "Feature", "properties": { "stationID": 753, "name": "Huamu Road", "lon": 121.55866190499999, "lat": 31.213026203999998, "全天总客流": 3834976, "早高峰客流": 658423, "晚高峰客流": 810124, "工作日日均": 33881.701149425287, "周末日均": 24646.333333333328 }, "geometry": { "type": "Point", "coordinates": [ 121.558661905, 31.213026204 ] } },
{ "type": "Feature", "properties": { "stationID": 1321, "name": "Jinyun Road", "lon": 121.31486487799999, "lat": 31.242815574000002, "全天总客流": 7540369, "早高峰客流": 2095247, "晚高峰客流": 1198867, "工作日日均": 67621.448275862072, "周末日均": 46036.194444444445 }, "geometry": { "type": "Point", "coordinates": [ 121.314864878, 31.242815574 ] } },
{ "type": "Feature", "properties": { "stationID": 1150, "name": "Shanghai Swimming Center", "lon": 121.43673900899999, "lat": 31.181366331, "全天总客流": 2991443, "早高峰客流": 636290, "晚高峰客流": 620872, "工作日日均": 26363.701149425287, "周末日均": 19383.361111111109 }, "geometry": { "type": "Point", "coordinates": [ 121.436739009, 31.181366331 ] } },
{ "type": "Feature", "properties": { "stationID": 247, "name": "Lujiazui", "lon": 121.4979311, "lat": 31.240237145999998, "全天总客流": 19139833, "早高峰客流": 3774942, "晚高峰客流": 4393312, "工作日日均": 176897.20689655171, "周末日均": 104160.44444444444 }, "geometry": { "type": "Point", "coordinates": [ 121.4979311, 31.240237146 ] } },
{ "type": "Feature", "properties": { "stationID": 248, "name": "Dongchang Road", "lon": 121.511146849, "lat": 31.235374663999998, "全天总客流": 9491773, "早高峰客流": 2150573, "晚高峰客流": 2138096, "工作日日均": 91278.816091954024, "周末日均": 43069.888888888891 }, "geometry": { "type": "Point", "coordinates": [ 121.511146849, 31.235374664 ] } },
{ "type": "Feature", "properties": { "stationID": 2004, "name": "Jufeng Road", "lon": 121.58426090899999, "lat": 31.282831741, "全天总客流": 3781929, "早高峰客流": 1205555, "晚高峰客流": 677510, "工作日日均": 34483.310344827587, "周末日均": 21718.916666666668 }, "geometry": { "type": "Point", "coordinates": [ 121.584260909, 31.282831741 ] } },
{ "type": "Feature", "properties": { "stationID": 250, "name": "Shanghai Science and Technology Museum", "lon": 121.54035992, "lat": 31.220820317000001, "全天总客流": 4756289, "早高峰客流": 940442, "晚高峰客流": 958252, "工作日日均": 40915.574712643684, "周末日均": 33239.833333333336 }, "geometry": { "type": "Point", "coordinates": [ 121.54035992, 31.220820317 ] } },
{ "type": "Feature", "properties": { "stationID": 251, "name": "Century Park", "lon": 121.546610423, "lat": 31.211428964, "全天总客流": 4044408, "早高峰客流": 1013736, "晚高峰客流": 780656, "工作日日均": 35854.068965517239, "周末日均": 25697.333333333328 }, "geometry": { "type": "Point", "coordinates": [ 121.546610423, 31.211428964 ] } },
{ "type": "Feature", "properties": { "stationID": 253, "name": "Zhangjiang Hi-Tech Park", "lon": 121.58344530799999, "lat": 31.204000442000002, "全天总客流": 8047287, "早高峰客流": 2143381, "晚高峰客流": 1832005, "工作日日均": 79600.919540229879, "周末日均": 31166.861111111109 }, "geometry": { "type": "Point", "coordinates": [ 121.583445308, 31.204000442 ] } },
{ "type": "Feature", "properties": { "stationID": 254, "name": "Jinke Road", "lon": 121.597840355, "lat": 31.206443836999998, "全天总客流": 10559927, "早高峰客流": 2521611, "晚高峰客流": 2419724, "工作日日均": 100932.4367816092, "周末日均": 49411.25 }, "geometry": { "type": "Point", "coordinates": [ 121.597840355, 31.206443837 ] } },
{ "type": "Feature", "properties": { "stationID": 255, "name": "Guanglan Road", "lon": 121.616923077, "lat": 31.213126633000002, "全天总客流": 9101666, "早高峰客流": 2589436, "晚高峰客流": 1903858, "工作日日均": 85610.206896551725, "周末日均": 45932.722222222219 }, "geometry": { "type": "Point", "coordinates": [ 121.616923077, 31.213126633 ] } },
{ "type": "Feature", "properties": { "stationID": 256, "name": "Tangzhen", "lon": 121.652313671, "lat": 31.216483577999998, "全天总客流": 4810765, "早高峰客流": 1560090, "晚高峰客流": 853574, "工作日日均": 43516.321839080461, "周末日均": 28467.916666666668 }, "geometry": { "type": "Point", "coordinates": [ 121.652313671, 31.216483578 ] } },
{ "type": "Feature", "properties": { "stationID": 257, "name": "Chuangxin Central Road", "lon": 121.669574879, "lat": 31.215686458, "全天总客流": 515216, "早高峰客流": 141878, "晚高峰客流": 96117, "工作日日均": 4554.2758620689656, "周末日均": 3305.3888888888887 }, "geometry": { "type": "Point", "coordinates": [ 121.669574879, 31.215686458 ] } },
{ "type": "Feature", "properties": { "stationID": 258, "name": "East Huaxia Road", "lon": 121.676664195, "lat": 31.198756563000003, "全天总客流": 2889071, "早高峰客流": 855342, "晚高峰客流": 455069, "工作日日均": 25820.068965517243, "周末日均": 17853.472222222223 }, "geometry": { "type": "Point", "coordinates": [ 121.676664195, 31.198756563 ] } },
{ "type": "Feature", "properties": { "stationID": 259, "name": "Chuansha", "lon": 121.69397627, "lat": 31.188872391, "全天总客流": 4363980, "早高峰客流": 1171801, "晚高峰客流": 661574, "工作日日均": 38348.183908045976, "周末日均": 28546.888888888891 }, "geometry": { "type": "Point", "coordinates": [ 121.69397627, 31.188872391 ] } },
{ "type": "Feature", "properties": { "stationID": 260, "name": "Lingkong Road", "lon": 121.719371563, "lat": 31.194796045, "全天总客流": 828346, "早高峰客流": 253651, "晚高峰客流": 114828, "工作日日均": 7321.4367816091954, "周末日均": 5316.1388888888887 }, "geometry": { "type": "Point", "coordinates": [ 121.719371563, 31.194796045 ] } },
{ "type": "Feature", "properties": { "stationID": 261, "name": "Yuandong Avenue", "lon": 121.75101284199999, "lat": 31.201430591000001, "全天总客流": 470422, "早高峰客流": 94038, "晚高峰客流": 68613, "工作日日均": 3597.1494252873563, "周末日均": 4374.166666666667 }, "geometry": { "type": "Point", "coordinates": [ 121.751012842, 31.201430591 ] } },
{ "type": "Feature", "properties": { "stationID": 262, "name": "Haitian 3rd Road", "lon": 121.792700291, "lat": 31.170492685, "全天总客流": 446117, "早高峰客流": 127551, "晚高峰客流": 51230, "工作日日均": 4147.4252873563219, "周末日均": 2369.1944444444443 }, "geometry": { "type": "Point", "coordinates": [ 121.792700291, 31.170492685 ] } },
{ "type": "Feature", "properties": { "stationID": 263, "name": "Pudong International Airport", "lon": 121.801903153, "lat": 31.152450366, "全天总客流": 3035705, "早高峰客流": 411786, "晚高峰客流": 394061, "工作日日均": 23991.873563218396, "周末日均": 26344.777777777777 }, "geometry": { "type": "Point", "coordinates": [ 121.801903153, 31.152450366 ] } },
{ "type": "Feature", "properties": { "stationID": 1239, "name": "Tilanqiao", "lon": 121.502585748, "lat": 31.255518759000001, "全天总客流": 2264716, "早高峰客流": 571790, "晚高峰客流": 513935, "工作日日均": 21500.356321839081, "周末日均": 10949.583333333334 }, "geometry": { "type": "Point", "coordinates": [ 121.502585748, 31.255518759 ] } },
{ "type": "Feature", "properties": { "stationID": 642, "name": "Dongjing Road", "lon": 121.58466371199999, "lat": 31.293153416, "全天总客流": 1906599, "早高峰客流": 595350, "晚高峰客流": 276181, "工作日日均": 17130.045977011494, "周末日均": 11563.472222222224 }, "geometry": { "type": "Point", "coordinates": [ 121.584663712, 31.293153416 ] } },
{ "type": "Feature", "properties": { "stationID": 643, "name": "Wuzhou Avenue", "lon": 121.585133606, "lat": 31.304728889, "全天总客流": 1107440, "早高峰客流": 279807, "晚高峰客流": 171985, "工作日日均": 9056.2068965517246, "周末日均": 8876.3888888888887 }, "geometry": { "type": "Point", "coordinates": [ 121.585133606, 31.304728889 ] } },
{ "type": "Feature", "properties": { "stationID": 1241, "name": "Jiangpu Park", "lon": 121.519166426, "lat": 31.266534411, "全天总客流": 3478092, "早高峰客流": 884729, "晚高峰客流": 640439, "工作日日均": 31929.689655172413, "周末日均": 19450.25 }, "geometry": { "type": "Point", "coordinates": [ 121.519166426, 31.266534411 ] } },
{ "type": "Feature", "properties": { "stationID": 644, "name": "Zhouhai Road", "lon": 121.585223441, "lat": 31.314421091, "全天总客流": 1672695, "早高峰客流": 463878, "晚高峰客流": 283998, "工作日日均": 14590.954022988506, "周末日均": 11202.277777777776 }, "geometry": { "type": "Point", "coordinates": [ 121.585223441, 31.314421091 ] } },
{ "type": "Feature", "properties": { "stationID": 640, "name": "Wulian Road", "lon": 121.58378743, "lat": 31.27414907, "全天总客流": 2835457, "早高峰客流": 648324, "晚高峰客流": 493034, "工作日日均": 23938.252873563219, "周末日均": 20911.916666666668 }, "geometry": { "type": "Point", "coordinates": [ 121.58378743, 31.27414907 ] } },
{ "type": "Feature", "properties": { "stationID": 1322, "name": "West Jinshajiang Road", "lon": 121.330754923, "lat": 31.243072825, "全天总客流": 1703532, "早高峰客流": 505333, "晚高峰客流": 306757, "工作日日均": 15919.643678160921, "周末日均": 8847.8611111111113 }, "geometry": { "type": "Point", "coordinates": [ 121.330754923, 31.243072825 ] } },
{ "type": "Feature", "properties": { "stationID": 1242, "name": "Ningguo Road", "lon": 121.527936109, "lat": 31.270559692, "全天总客流": 4504170, "早高峰客流": 1048747, "晚高峰客流": 838512, "工作日日均": 40908.839080459773, "周末日均": 26252.805555555555 }, "geometry": { "type": "Point", "coordinates": [ 121.527936109, 31.270559692 ] } },
{ "type": "Feature", "properties": { "stationID": 645, "name": "South Waigaoqiao Free Trade Zone Station", "lon": 121.59778165, "lat": 31.323763133000003, "全天总客流": 1524630, "早高峰客流": 450670, "晚高峰客流": 297098, "工作日日均": 14815.333333333334, "周末日均": 6547.1111111111113 }, "geometry": { "type": "Point", "coordinates": [ 121.59778165, 31.323763133 ] } },
{ "type": "Feature", "properties": { "stationID": 1243, "name": "Longchang Road", "lon": 121.54070780799999, "lat": 31.277458786, "全天总客流": 4062879, "早高峰客流": 1037381, "晚高峰客流": 752015, "工作日日均": 37064.689655172413, "周末日均": 23284.75 }, "geometry": { "type": "Point", "coordinates": [ 121.540707808, 31.277458786 ] } },
{ "type": "Feature", "properties": { "stationID": 646, "name": "Hangjin Road", "lon": 121.589807171, "lat": 31.337549811, "全天总客流": 1782668, "早高峰客流": 469349, "晚高峰客流": 302076, "工作日日均": 16016.344827586208, "周末日均": 10812.388888888889 }, "geometry": { "type": "Point", "coordinates": [ 121.589807171, 31.337549811 ] } },
{ "type": "Feature", "properties": { "stationID": 1329, "name": "Wuning Road", "lon": 121.425915093, "lat": 31.236185753000001, "全天总客流": 3851358, "早高峰客流": 752839, "晚高峰客流": 777635, "工作日日均": 35615.45977011494, "周末日均": 20911.472222222223 }, "geometry": { "type": "Point", "coordinates": [ 121.425915093, 31.236185753 ] } },
{ "type": "Feature", "properties": { "stationID": 1244, "name": "Aiguo Road", "lon": 121.548415693, "lat": 31.281994036, "全天总客流": 2497399, "早高峰客流": 664130, "晚高峰客流": 435174, "工作日日均": 21919.793103448275, "周末日均": 16399.361111111109 }, "geometry": { "type": "Point", "coordinates": [ 121.548415693, 31.281994036 ] } },
{ "type": "Feature", "properties": { "stationID": 1152, "name": "Yunjin Road", "lon": 121.453824439, "lat": 31.169478023000003, "全天总客流": 1106659, "早高峰客流": 232456, "晚高峰客流": 250316, "工作日日均": 10326.551724137931, "周末日均": 5784.6944444444443 }, "geometry": { "type": "Point", "coordinates": [ 121.453824439, 31.169478023 ] } },
{ "type": "Feature", "properties": { "stationID": 647, "name": "North Waigaoqiao Free Trade Zone Station", "lon": 121.58272483099999, "lat": 31.349940744000001, "全天总客流": 1273268, "早高峰客流": 340677, "晚高峰客流": 198580, "工作日日均": 11901.137931034482, "周末日均": 6607.4722222222226 }, "geometry": { "type": "Point", "coordinates": [ 121.582724831, 31.349940744 ] } },
{ "type": "Feature", "properties": { "stationID": 1324, "name": "South Qilianshan Road", "lon": 121.36286960299999, "lat": 31.239405116, "全天总客流": 4316831, "早高峰客流": 1182285, "晚高峰客流": 783292, "工作日日均": 39528.080459770114, "周末日均": 24385.777777777777 }, "geometry": { "type": "Point", "coordinates": [ 121.362869603, 31.239405116 ] } },
{ "type": "Feature", "properties": { "stationID": 1325, "name": "Zhenbei Road", "lon": 121.377228761, "lat": 31.234191683, "全天总客流": 5658185, "早高峰客流": 1224142, "晚高峰客流": 1191272, "工作日日均": 53051.724137931044, "周末日均": 28963.472222222223 }, "geometry": { "type": "Point", "coordinates": [ 121.377228761, 31.234191683 ] } },
{ "type": "Feature", "properties": { "stationID": 1326, "name": "Daduhe Road", "lon": 121.389819686, "lat": 31.233673981, "全天总客流": 5381052, "早高峰客流": 1397231, "晚高峰客流": 1080273, "工作日日均": 51753.620689655167, "周末日均": 24402.416666666668 }, "geometry": { "type": "Point", "coordinates": [ 121.389819686, 31.233673981 ] } },
{ "type": "Feature", "properties": { "stationID": 1245, "name": "Fuxing Island", "lon": 121.557010351, "lat": 31.282961224000001, "全天总客流": 324790, "早高峰客流": 77761, "晚高峰客流": 56342, "工作日日均": 2942.0, "周末日均": 1912.1111111111111 }, "geometry": { "type": "Point", "coordinates": [ 121.557010351, 31.282961224 ] } },
{ "type": "Feature", "properties": { "stationID": 648, "name": "Gangcheng Road", "lon": 121.570374974, "lat": 31.355142146, "全天总客流": 1213142, "早高峰客流": 369506, "晚高峰客流": 179090, "工作日日均": 10718.908045977012, "周末日均": 7794.3611111111113 }, "geometry": { "type": "Point", "coordinates": [ 121.570374974, 31.355142146 ] } },
{ "type": "Feature", "properties": { "stationID": 1331, "name": "Jiangning Road", "lon": 121.440163596, "lat": 31.246266848000001, "全天总客流": 4165855, "早高峰客流": 815110, "晚高峰客流": 899454, "工作日日均": 38777.34482758621, "周末日均": 22006.277777777777 }, "geometry": { "type": "Point", "coordinates": [ 121.440163596, 31.246266848 ] } },
{ "type": "Feature", "properties": { "stationID": 820, "name": "Shendu Highway", "lon": 121.507905886, "lat": 31.063523541, "全天总客流": 9023302, "早高峰客流": 2492442, "晚高峰客流": 1290270, "工作日日均": 78170.149425287353, "周末日均": 61736.083333333336 }, "geometry": { "type": "Point", "coordinates": [ 121.507905886, 31.063523541 ] } },
{ "type": "Feature", "properties": { "stationID": 821, "name": "Lianhang Road", "lon": 121.506222033, "lat": 31.075710319, "全天总客流": 3580634, "早高峰客流": 1164131, "晚高峰客流": 577283, "工作日日均": 33479.229885057473, "周末日均": 18553.916666666668 }, "geometry": { "type": "Point", "coordinates": [ 121.506222033, 31.075710319 ] } },
{ "type": "Feature", "properties": { "stationID": 822, "name": "Jiangyue Road", "lon": 121.50423684800001, "lat": 31.086342078000001, "全天总客流": 4109170, "早高峰客流": 1166507, "晚高峰客流": 741131, "工作日日均": 37644.827586206899, "周末日均": 23168.611111111109 }, "geometry": { "type": "Point", "coordinates": [ 121.504236848, 31.086342078 ] } },
{ "type": "Feature", "properties": { "stationID": 823, "name": "Pujiang Town", "lon": 121.501874632, "lat": 31.098688359000001, "全天总客流": 3000620, "早高峰客流": 799732, "晚高峰客流": 586093, "工作日日均": 27528.597701149425, "周末日均": 16823.111111111109 }, "geometry": { "type": "Point", "coordinates": [ 121.501874632, 31.098688359 ] } },
{ "type": "Feature", "properties": { "stationID": 312, "name": "Shilong Road", "lon": 121.43866797699999, "lat": 31.159856731000001, "全天总客流": 2463159, "早高峰客流": 643628, "晚高峰客流": 448119, "工作日日均": 22234.919540229886, "周末日均": 14686.694444444443 }, "geometry": { "type": "Point", "coordinates": [ 121.438667977, 31.159856731 ] } },
{ "type": "Feature", "properties": { "stationID": 825, "name": "Lingzhao Xincun", "lon": 121.48489117, "lat": 31.143021235, "全天总客流": 1656069, "早高峰客流": 455596, "晚高峰客流": 268464, "工作日日均": 14607.908045977012, "周末日均": 10699.472222222224 }, "geometry": { "type": "Point", "coordinates": [ 121.48489117, 31.143021235 ] } },
{ "type": "Feature", "properties": { "stationID": 314, "name": "Caoxi Road", "lon": 121.433731362, "lat": 31.178643733000001, "全天总客流": 1919996, "早高峰客流": 355713, "晚高峰客流": 386462, "工作日日均": 16553.19540229885, "周末日均": 13329.666666666666 }, "geometry": { "type": "Point", "coordinates": [ 121.433731362, 31.178643733 ] } },
{ "type": "Feature", "properties": { "stationID": 827, "name": "Yangsi", "lon": 121.488937814, "lat": 31.162962577999998, "全天总客流": 4718519, "早高峰客流": 1315938, "晚高峰客流": 788614, "工作日日均": 42179.781609195401, "周末日均": 29135.5 }, "geometry": { "type": "Point", "coordinates": [ 121.488937814, 31.162962578 ] } },
{ "type": "Feature", "properties": { "stationID": 828, "name": "Chengshan Road", "lon": 121.4918544, "lat": 31.172546017999998, "全天总客流": 5170697, "早高峰客流": 1289659, "晚高峰客流": 814098, "工作日日均": 44750.85057471264, "周末日均": 35482.583333333336 }, "geometry": { "type": "Point", "coordinates": [ 121.4918544, 31.172546018 ] } },
{ "type": "Feature", "properties": { "stationID": 931, "name": "Caohejing Hi-Tech Park", "lon": 121.393065079, "lat": 31.172459594, "全天总客流": 9531439, "早高峰客流": 2611414, "晚高峰客流": 2363446, "工作日日均": 99029.770114942527, "周末日均": 25440.25 }, "geometry": { "type": "Point", "coordinates": [ 121.393065079, 31.172459594 ] } },
{ "type": "Feature", "properties": { "stationID": 830, "name": "China Art Museum", "lon": 121.48934364199999, "lat": 31.18724117, "全天总客流": 2643905, "早高峰客流": 289283, "晚高峰客流": 485431, "工作日日均": 17399.96551724138, "周末日均": 31391.888888888891 }, "geometry": { "type": "Point", "coordinates": [ 121.489343642, 31.18724117 ] } },
{ "type": "Feature", "properties": { "stationID": 1333, "name": "Shanghai Natural History Museum", "lon": 121.45782388400001, "lat": 31.238327541, "全天总客流": 1869577, "早高峰客流": 299956, "晚高峰客流": 373603, "工作日日均": 16103.827586206897, "周末日均": 13015.111111111111 }, "geometry": { "type": "Point", "coordinates": [ 121.457823884, 31.238327541 ] } },
{ "type": "Feature", "properties": { "stationID": 1238, "name": "International Cruise Terminal", "lon": 121.49459205700001, "lat": 31.252401124, "全天总客流": 2495468, "早高峰客流": 627711, "晚高峰客流": 621463, "工作日日均": 24394.678160919539, "周末日均": 10364.75 }, "geometry": { "type": "Point", "coordinates": [ 121.494592057, 31.252401124 ] } },
{ "type": "Feature", "properties": { "stationID": 834, "name": "Great World", "lon": 121.474712385, "lat": 31.229130520999998, "全天总客流": 7847363, "早高峰客流": 1245533, "晚高峰客流": 1708936, "工作日日均": 69336.425287356324, "周末日均": 50419.277777777781 }, "geometry": { "type": "Point", "coordinates": [ 121.474712385, 31.229130521 ] } },
{ "type": "Feature", "properties": { "stationID": 505, "name": "Zhuanqiao", "lon": 121.397229638, "lat": 31.068926951000002, "全天总客流": 3482027, "早高峰客流": 917986, "晚高峰客流": 643830, "工作日日均": 31571.942528735632, "周末日均": 20424.111111111109 }, "geometry": { "type": "Point", "coordinates": [ 121.397229638, 31.068926951 ] } },
{ "type": "Feature", "properties": { "stationID": 846, "name": "Huangxing Park", "lon": 121.52862169, "lat": 31.298126414, "全天总客流": 1982177, "早高峰客流": 477807, "晚高峰客流": 343603, "工作日日均": 17458.459770114943, "周末日均": 12869.194444444443 }, "geometry": { "type": "Point", "coordinates": [ 121.52862169, 31.298126414 ] } },
{ "type": "Feature", "properties": { "stationID": 325, "name": "Dongbaoxing Road", "lon": 121.475714615, "lat": 31.26190605, "全天总客流": 3215403, "早高峰客流": 645899, "晚高峰客流": 643415, "工作日日均": 28799.436781609194, "周末日均": 19718.111111111109 }, "geometry": { "type": "Point", "coordinates": [ 121.475714615, 31.26190605 ] } },
{ "type": "Feature", "properties": { "stationID": 838, "name": "North Xizang Road", "lon": 121.46426431499999, "lat": 31.265306644, "全天总客流": 5137374, "早高峰客流": 1177247, "晚高峰客流": 892359, "工作日日均": 45922.356321839077, "周末日均": 31725.805555555555 }, "geometry": { "type": "Point", "coordinates": [ 121.464264315, 31.265306644 ] } },
{ "type": "Feature", "properties": { "stationID": 327, "name": "Chifeng Road", "lon": 121.477955068, "lat": 31.283218029, "全天总客流": 3593780, "早高峰客流": 761055, "晚高峰客流": 635418, "工作日日均": 30927.160919540231, "周末日均": 25086.583333333328 }, "geometry": { "type": "Point", "coordinates": [ 121.477955068, 31.283218029 ] } },
{ "type": "Feature", "properties": { "stationID": 328, "name": "Dabaishu", "lon": 121.47870274, "lat": 31.291415275, "全天总客流": 5160281, "早高峰客流": 1289423, "晚高峰客流": 959316, "工作日日均": 47907.436781609198, "周末日均": 27564.833333333328 }, "geometry": { "type": "Point", "coordinates": [ 121.47870274, 31.291415275 ] } },
{ "type": "Feature", "properties": { "stationID": 329, "name": "Jiangwan Town", "lon": 121.480588797, "lat": 31.307468902, "全天总客流": 5555248, "早高峰客流": 1424385, "晚高峰客流": 943654, "工作日日均": 49229.091954022988, "周末日均": 35342.138888888891 }, "geometry": { "type": "Point", "coordinates": [ 121.480588797, 31.307468902 ] } },
{ "type": "Feature", "properties": { "stationID": 330, "name": "West Yingao Road", "lon": 121.48043360299999, "lat": 31.321846932, "全天总客流": 4465978, "早高峰客流": 1172746, "晚高峰客流": 737031, "工作日日均": 39977.678160919539, "周末日均": 27442.222222222223 }, "geometry": { "type": "Point", "coordinates": [ 121.480433603, 31.321846932 ] } },
{ "type": "Feature", "properties": { "stationID": 331, "name": "South Changjiang Road", "lon": 121.48700455300001, "lat": 31.333957359, "全天总客流": 3916095, "早高峰客流": 1086679, "晚高峰客流": 695702, "工作日日均": 35859.747126436785, "周末日均": 22119.361111111109 }, "geometry": { "type": "Point", "coordinates": [ 121.487004553, 31.333957359 ] } },
{ "type": "Feature", "properties": { "stationID": 332, "name": "Songfa Road", "lon": 121.495949213, "lat": 31.347075743000001, "全天总客流": 1645392, "早高峰客流": 494808, "晚高峰客流": 290354, "工作日日均": 15343.597701149423, "周末日均": 8624.9722222222226 }, "geometry": { "type": "Point", "coordinates": [ 121.495949213, 31.347075743 ] } },
{ "type": "Feature", "properties": { "stationID": 333, "name": "Zhanghuabang", "lon": 121.494268593, "lat": 31.359927177, "全天总客流": 379144, "早高峰客流": 107212, "晚高峰客流": 55257, "工作日日均": 3406.7011494252874, "周末日均": 2298.9166666666665 }, "geometry": { "type": "Point", "coordinates": [ 121.494268593, 31.359927177 ] } },
{ "type": "Feature", "properties": { "stationID": 334, "name": "Songbin Road", "lon": 121.488635629, "lat": 31.372264208000001, "全天总客流": 2185871, "早高峰客流": 571941, "晚高峰客流": 336111, "工作日日均": 19714.735632183907, "周末日均": 13074.694444444443 }, "geometry": { "type": "Point", "coordinates": [ 121.488635629, 31.372264208 ] } },
{ "type": "Feature", "properties": { "stationID": 335, "name": "Shuichan Road", "lon": 121.483768106, "lat": 31.383177516, "全天总客流": 1704606, "早高峰客流": 523809, "晚高峰客流": 261567, "工作日日均": 15633.563218390804, "周末日均": 9569.0555555555566 }, "geometry": { "type": "Point", "coordinates": [ 121.483768106, 31.383177516 ] } },
{ "type": "Feature", "properties": { "stationID": 336, "name": "Baoyang Road", "lon": 121.475066666, "lat": 31.397184356, "全天总客流": 1750792, "早高峰客流": 431684, "晚高峰客流": 233902, "工作日日均": 15308.931034482761, "周末日均": 11636.527777777776 }, "geometry": { "type": "Point", "coordinates": [ 121.475066666, 31.397184356 ] } },
{ "type": "Feature", "properties": { "stationID": 337, "name": "Youyi Road", "lon": 121.471384511, "lat": 31.405920883, "全天总客流": 2079023, "早高峰客流": 567744, "晚高峰客流": 312311, "工作日日均": 19028.862068965522, "周末日均": 11764.222222222224 }, "geometry": { "type": "Point", "coordinates": [ 121.471384511, 31.405920883 ] } },
{ "type": "Feature", "properties": { "stationID": 338, "name": "Tieli Road", "lon": 121.45644833599999, "lat": 31.409918876, "全天总客流": 743598, "早高峰客流": 233972, "晚高峰客流": 124869, "工作日日均": 7154.2758620689656, "周末日均": 3366.0 }, "geometry": { "type": "Point", "coordinates": [ 121.456448336, 31.409918876 ] } },
{ "type": "Feature", "properties": { "stationID": 339, "name": "North Jiangyang Road", "lon": 121.435081311, "lat": 31.409673404, "全天总客流": 1950274, "早高峰客流": 577625, "晚高峰客流": 294904, "工作日日均": 17583.528735632182, "周末日均": 11680.75 }, "geometry": { "type": "Point", "coordinates": [ 121.435081311, 31.409673404 ] } },
{ "type": "Feature", "properties": { "stationID": 932, "name": "Guilin Road", "lon": 121.413652527, "lat": 31.176699229, "全天总客流": 8119158, "早高峰客流": 1858251, "晚高峰客流": 1747109, "工作日日均": 78595.229885057473, "周末日均": 35593.694444444445 }, "geometry": { "type": "Point", "coordinates": [ 121.413652527, 31.176699229 ] } },
{ "type": "Feature", "properties": { "stationID": 1338, "name": "World Expo Museum", "lon": 121.477251581, "lat": 31.199280653, "全天总客流": 1991246, "早高峰客流": 394900, "晚高峰客流": 438070, "工作日日均": 18689.321839080461, "周末日均": 10146.527777777776 }, "geometry": { "type": "Point", "coordinates": [ 121.477251581, 31.199280653 ] } },
{ "type": "Feature", "properties": { "stationID": 847, "name": "Xiangyin Road", "lon": 121.527501152, "lat": 31.307201218000003, "全天总客流": 2467232, "早高峰客流": 583362, "晚高峰客流": 393641, "工作日日均": 21923.22988505747, "周末日均": 15553.083333333334 }, "geometry": { "type": "Point", "coordinates": [ 121.527501152, 31.307201218 ] } },
{ "type": "Feature", "properties": { "stationID": 1339, "name": "Expo Avenue", "lon": 121.47970820099999, "lat": 31.18501371, "全天总客流": 1109128, "早高峰客流": 274970, "晚高峰客流": 271156, "工作日日均": 10114.03448275862, "周末日均": 6366.8611111111113 }, "geometry": { "type": "Point", "coordinates": [ 121.479708201, 31.18501371 ] } },
{ "type": "Feature", "properties": { "stationID": 1137, "name": "Nanxiang", "lon": 121.31865174799999, "lat": 31.298837137, "全天总客流": 7379582, "早高峰客流": 1916930, "晚高峰客流": 1291030, "工作日日均": 66015.034482758623, "周末日均": 45452.055555555562 }, "geometry": { "type": "Point", "coordinates": [ 121.318651748, 31.298837137 ] } },
{ "type": "Feature", "properties": { "stationID": 744, "name": "Houtan", "lon": 121.469379488, "lat": 31.174029921, "全天总客流": 771678, "早高峰客流": 208182, "晚高峰客流": 169788, "工作日日均": 7097.0344827586205, "周末日均": 4284.333333333333 }, "geometry": { "type": "Point", "coordinates": [ 121.469379488, 31.174029921 ] } },
{ "type": "Feature", "properties": { "stationID": 745, "name": "Changqing Road", "lon": 121.481698094, "lat": 31.17661023, "全天总客流": 3310650, "早高峰客流": 887131, "晚高峰客流": 549064, "工作日日均": 29682.896551724138, "周末日均": 20228.833333333328 }, "geometry": { "type": "Point", "coordinates": [ 121.481698094, 31.17661023 ] } },
{ "type": "Feature", "properties": { "stationID": 507, "name": "Beiqiao", "lon": 121.405430474, "lat": 31.04699477, "全天总客流": 2958398, "早高峰客流": 790089, "晚高峰客流": 481408, "工作日日均": 25814.908045977008, "周末日均": 19791.694444444445 }, "geometry": { "type": "Point", "coordinates": [ 121.405430474, 31.04699477 ] } },
{ "type": "Feature", "properties": { "stationID": 848, "name": "Nenjiang Road", "lon": 121.52737315100001, "lat": 31.316802024000001, "全天总客流": 3091425, "早高峰客流": 768575, "晚高峰客流": 498976, "工作日日均": 26703.6091954023, "周末日均": 21339.194444444445 }, "geometry": { "type": "Point", "coordinates": [ 121.527373151, 31.316802024 ] } },
{ "type": "Feature", "properties": { "stationID": 1155, "name": "Sanlin", "lon": 121.507435391, "lat": 31.14525371, "全天总客流": 4126101, "早高峰客流": 1174983, "晚高峰客流": 671407, "工作日日均": 36222.977011494251, "周末日均": 27075.055555555555 }, "geometry": { "type": "Point", "coordinates": [ 121.507435391, 31.14525371 ] } },
{ "type": "Feature", "properties": { "stationID": 1138, "name": "Taopu Xincun", "lon": 121.345054448, "lat": 31.283439299000001, "全天总客流": 4274280, "早高峰客流": 1151458, "晚高峰客流": 725846, "工作日日均": 37883.632183908048, "周末日均": 27177.888888888891 }, "geometry": { "type": "Point", "coordinates": [ 121.345054448, 31.283439299 ] } },
{ "type": "Feature", "properties": { "stationID": 749, "name": "South Yanggao Road", "lon": 121.52004766899999, "lat": 31.189639158, "全天总客流": 4271038, "早高峰客流": 1232744, "晚高峰客流": 736159, "工作日日均": 38882.172413793101, "周末日均": 24674.694444444445 }, "geometry": { "type": "Point", "coordinates": [ 121.520047669, 31.189639158 ] } },
{ "type": "Feature", "properties": { "stationID": 2042, "name": "Luoshan Road", "lon": 121.588971931, "lat": 31.155506111000001, "全天总客流": 1206375, "早高峰客流": 350588, "晚高峰客流": 257128, "工作日日均": 11276.080459770115, "周末日均": 6259.8888888888887 }, "geometry": { "type": "Point", "coordinates": [ 121.588971931, 31.155506111 ] } },
{ "type": "Feature", "properties": { "stationID": 750, "name": "Jinxiu Road", "lon": 121.53575280699999, "lat": 31.189635096, "全天总客流": 4444559, "早高峰客流": 1298333, "晚高峰客流": 746576, "工作日日均": 39292.965517241377, "周末日均": 28501.972222222223 }, "geometry": { "type": "Point", "coordinates": [ 121.535752807, 31.189635096 ] } },
{ "type": "Feature", "properties": { "stationID": 918, "name": "South Songjiang Railway Station", "lon": 121.226390216, "lat": 30.987130812, "全天总客流": 902086, "早高峰客流": 195040, "晚高峰客流": 180558, "工作日日均": 7207.8505747126437, "周末日均": 7638.9722222222226 }, "geometry": { "type": "Point", "coordinates": [ 121.226390216, 30.987130812 ] } },
{ "type": "Feature", "properties": { "stationID": 919, "name": "Zuibaichi", "lon": 121.224717028, "lat": 31.002760868000003, "全天总客流": 1659138, "早高峰客流": 364561, "晚高峰客流": 238629, "工作日日均": 13461.48275862069, "周末日均": 13555.25 }, "geometry": { "type": "Point", "coordinates": [ 121.224717028, 31.002760868 ] } },
{ "type": "Feature", "properties": { "stationID": 920, "name": "Songjiang Sports Center", "lon": 121.22636477899999, "lat": 31.018055817, "全天总客流": 3068199, "早高峰客流": 739001, "晚高峰客流": 479140, "工作日日均": 26716.114942528737, "周末日均": 20663.805555555555 }, "geometry": { "type": "Point", "coordinates": [ 121.226364779, 31.018055817 ] } },
{ "type": "Feature", "properties": { "stationID": 921, "name": "Songjiang New City", "lon": 121.22634038299999, "lat": 31.032245093, "全天总客流": 2939883, "早高峰客流": 659797, "晚高峰客流": 477074, "工作日日均": 25236.14942528736, "周末日均": 20676.055555555555 }, "geometry": { "type": "Point", "coordinates": [ 121.226340383, 31.032245093 ] } },
{ "type": "Feature", "properties": { "stationID": 922, "name": "Songjiang University Town", "lon": 121.228252415, "lat": 31.056164209, "全天总客流": 5916774, "早高峰客流": 1338998, "晚高峰客流": 958488, "工作日日均": 50655.873563218389, "周末日均": 41936.472222222219 }, "geometry": { "type": "Point", "coordinates": [ 121.228252415, 31.056164209 ] } },
{ "type": "Feature", "properties": { "stationID": 751, "name": "Fanghua Road", "lon": 121.545954276, "lat": 31.194881433000003, "全天总客流": 4786287, "早高峰客流": 1347001, "晚高峰客流": 700917, "工作日日均": 42789.264367816089, "周末日均": 29545.027777777777 }, "geometry": { "type": "Point", "coordinates": [ 121.545954276, 31.194881433 ] } },
{ "type": "Feature", "properties": { "stationID": 924, "name": "Sheshan", "lon": 121.225311253, "lat": 31.10625363, "全天总客流": 5784066, "早高峰客流": 1628866, "晚高峰客流": 893879, "工作日日均": 50200.264367816089, "周末日均": 39351.194444444445 }, "geometry": { "type": "Point", "coordinates": [ 121.225311253, 31.10625363 ] } },
{ "type": "Feature", "properties": { "stationID": 413, "name": "Lingping Road", "lon": 121.49643205, "lat": 31.262993787, "全天总客流": 4388810, "早高峰客流": 957653, "晚高峰客流": 833046, "工作日日均": 39353.160919540227, "周末日均": 26807.916666666668 }, "geometry": { "type": "Point", "coordinates": [ 121.49643205, 31.262993787 ] } },
{ "type": "Feature", "properties": { "stationID": 849, "name": "Shiguang Road", "lon": 121.527610735, "lat": 31.324729476000002, "全天总客流": 4025499, "早高峰客流": 1233836, "晚高峰客流": 607682, "工作日日均": 36009.114942528737, "周末日均": 24797.388888888891 }, "geometry": { "type": "Point", "coordinates": [ 121.527610735, 31.324729476 ] } },
{ "type": "Feature", "properties": { "stationID": 415, "name": "Yangshupu Road", "lon": 121.512674289, "lat": 31.254056501000001, "全天总客流": 3886908, "早高峰客流": 1056780, "晚高峰客流": 794877, "工作日日均": 36742.6091954023, "周末日均": 19175.027777777777 }, "geometry": { "type": "Point", "coordinates": [ 121.512674289, 31.254056501 ] } },
{ "type": "Feature", "properties": { "stationID": 416, "name": "Pudong Avenue", "lon": 121.514986935, "lat": 31.242168231000001, "全天总客流": 5404029, "早高峰客流": 1335691, "晚高峰客流": 1165467, "工作日日均": 52100.206896551725, "周末日均": 24203.083333333328 }, "geometry": { "type": "Point", "coordinates": [ 121.514986935, 31.242168231 ] } },
{ "type": "Feature", "properties": { "stationID": 929, "name": "Xingzhong Road", "lon": 121.364298895, "lat": 31.160014256, "全天总客流": 1781274, "早高峰客流": 410270, "晚高峰客流": 291191, "工作日日均": 15591.3908045977, "周末日均": 11800.638888888889 }, "geometry": { "type": "Point", "coordinates": [ 121.364298895, 31.160014256 ] } },
{ "type": "Feature", "properties": { "stationID": 930, "name": "Hechuan Road", "lon": 121.380123957, "lat": 31.168432353000004, "全天总客流": 5525027, "早高峰客流": 1378259, "晚高峰客流": 1301493, "工作日日均": 53982.712643678162, "周末日均": 23014.75 }, "geometry": { "type": "Point", "coordinates": [ 121.380123957, 31.168432353 ] } },
{ "type": "Feature", "properties": { "stationID": 923, "name": "Dongjing", "lon": 121.22608538599999, "lat": 31.086565625, "全天总客流": 2266927, "早高峰客流": 638123, "晚高峰客流": 353473, "工作日日均": 19392.6091954023, "周末日均": 16104.722222222224 }, "geometry": { "type": "Point", "coordinates": [ 121.226085386, 31.086565625 ] } },
{ "type": "Feature", "properties": { "stationID": 420, "name": "Tangqiao", "lon": 121.51437987200001, "lat": 31.211791632000001, "全天总客流": 5936341, "早高峰客流": 1347259, "晚高峰客流": 1073125, "工作日日均": 54726.298850574713, "周末日均": 32643.138888888891 }, "geometry": { "type": "Point", "coordinates": [ 121.514379872, 31.211791632 ] } },
{ "type": "Feature", "properties": { "stationID": 421, "name": "Nanpu Bridge", "lon": 121.49496409699999, "lat": 31.210345047000001, "全天总客流": 3276824, "早高峰客流": 674063, "晚高峰客流": 626436, "工作日日均": 29061.781609195401, "周末日均": 20790.25 }, "geometry": { "type": "Point", "coordinates": [ 121.494964097, 31.210345047 ] } },
{ "type": "Feature", "properties": { "stationID": 423, "name": "Luban Road", "lon": 121.470721641, "lat": 31.201255467, "全天总客流": 5084303, "早高峰客流": 1046588, "晚高峰客流": 1001442, "工作日日均": 46334.218390804599, "周末日均": 29256.277777777777 }, "geometry": { "type": "Point", "coordinates": [ 121.470721641, 31.201255467 ] } },
{ "type": "Feature", "properties": { "stationID": 937, "name": "Dapuqiao", "lon": 121.464086845, "lat": 31.208456707, "全天总客流": 10509654, "早高峰客流": 1424865, "晚高峰客流": 1989329, "工作日日均": 89635.402298850575, "周末日均": 75315.944444444438 }, "geometry": { "type": "Point", "coordinates": [ 121.464086845, 31.208456707 ] } },
{ "type": "Feature", "properties": { "stationID": 426, "name": "Shanghai Stadium", "lon": 121.438950452, "lat": 31.187352492, "全天总客流": 5472036, "早高峰客流": 969614, "晚高峰客流": 1082809, "工作日日均": 48634.563218390802, "周末日均": 34467.472222222219 }, "geometry": { "type": "Point", "coordinates": [ 121.438950452, 31.187352492 ] } },
{ "type": "Feature", "properties": { "stationID": 940, "name": "Xiaonanmen", "lon": 121.494041588, "lat": 31.219075141000001, "全天总客流": 4361155, "早高峰客流": 959420, "晚高峰客流": 896713, "工作日日均": 39691.045977011498, "周末日均": 25223.166666666668 }, "geometry": { "type": "Point", "coordinates": [ 121.494041588, 31.219075141 ] } },
{ "type": "Feature", "properties": { "stationID": 941, "name": "Shangcheng Road", "lon": 121.512034464, "lat": 31.232726476, "全天总客流": 8636621, "早高峰客流": 1652932, "晚高峰客流": 1896515, "工作日日均": 79477.137931034478, "周末日均": 47836.388888888891 }, "geometry": { "type": "Point", "coordinates": [ 121.512034464, 31.232726476 ] } },
{ "type": "Feature", "properties": { "stationID": 925, "name": "Sijing", "lon": 121.2559243, "lat": 31.120403035, "全天总客流": 7837854, "早高峰客流": 2142014, "晚高峰客流": 1273159, "工作日日均": 70390.724137931029, "周末日均": 47607.25 }, "geometry": { "type": "Point", "coordinates": [ 121.2559243, 31.120403035 ] } },
{ "type": "Feature", "properties": { "stationID": 840, "name": "Quyang Road", "lon": 121.486134081, "lat": 31.278512493000001, "全天总客流": 4478358, "早高峰客流": 1114702, "晚高峰客流": 775073, "工作日日均": 39366.264367816089, "周末日均": 29263.694444444445 }, "geometry": { "type": "Point", "coordinates": [ 121.486134081, 31.278512493 ] } },
{ "type": "Feature", "properties": { "stationID": 926, "name": "Jiuting", "lon": 121.315099332, "lat": 31.139406939000001, "全天总客流": 9607253, "早高峰客流": 2549054, "晚高峰客流": 1675288, "工作日日均": 87040.712643678155, "周末日均": 56519.75 }, "geometry": { "type": "Point", "coordinates": [ 121.315099332, 31.139406939 ] } },
{ "type": "Feature", "properties": { "stationID": 927, "name": "Zhongchun Road", "lon": 121.33224106199999, "lat": 31.150968837000001, "全天总客流": 2208246, "早高峰客流": 637165, "晚高峰客流": 427714, "工作日日均": 20950.172413793105, "周末日均": 10710.583333333334 }, "geometry": { "type": "Point", "coordinates": [ 121.332241062, 31.150968837 ] } },
{ "type": "Feature", "properties": { "stationID": 842, "name": "Anshan Xincun", "lon": 121.505160723, "lat": 31.275299223000001, "全天总客流": 3384155, "早高峰客流": 729012, "晚高峰客流": 591868, "工作日日均": 28984.218390804599, "周末日均": 23959.111111111109 }, "geometry": { "type": "Point", "coordinates": [ 121.505160723, 31.275299223 ] } },
{ "type": "Feature", "properties": { "stationID": 2037, "name": "Jiaotong University", "lon": 121.42971639300001, "lat": 31.203733942, "全天总客流": 6432255, "早高峰客流": 1220137, "晚高峰客流": 1282484, "工作日日均": 57026.091954022988, "周末日均": 40860.694444444445 }, "geometry": { "type": "Point", "coordinates": [ 121.429716393, 31.203733942 ] } },
{ "type": "Feature", "properties": { "stationID": 1157, "name": "Pusan Road", "lon": 121.53448883199999, "lat": 31.153109847, "全天总客流": 2432226, "早高峰客流": 724472, "晚高峰客流": 402686, "工作日日均": 22065.701149425287, "周末日均": 14236.388888888889 }, "geometry": { "type": "Point", "coordinates": [ 121.534488832, 31.153109847 ] } },
{ "type": "Feature", "properties": { "stationID": 928, "name": "Qibao", "lon": 121.345076273, "lat": 31.157421516, "全天总客流": 9946639, "早高峰客流": 1821859, "晚高峰客流": 1738839, "工作日日均": 82122.264367816097, "周末日均": 77833.388888888891 }, "geometry": { "type": "Point", "coordinates": [ 121.345076273, 31.157421516 ] } },
{ "type": "Feature", "properties": { "stationID": 843, "name": "Jiangpu Road", "lon": 121.513485367, "lat": 31.276923954000001, "全天总客流": 5372997, "早高峰客流": 1051582, "晚高峰客流": 840522, "工作日日均": 47199.85057471264, "周末日均": 35183.611111111109 }, "geometry": { "type": "Point", "coordinates": [ 121.513485367, 31.276923954 ] } },
{ "type": "Feature", "properties": { "stationID": 502, "name": "Chunshen Road", "lon": 121.381178577, "lat": 31.100133212, "全天总客流": 1230289, "早高峰客流": 341702, "晚高峰客流": 225995, "工作日日均": 11365.80459770115, "周末日均": 6707.333333333333 }, "geometry": { "type": "Point", "coordinates": [ 121.381178577, 31.100133212 ] } },
{ "type": "Feature", "properties": { "stationID": 844, "name": "Huangxing Road", "lon": 121.52397994899999, "lat": 31.280810292999998, "全天总客流": 3963640, "早高峰客流": 978871, "晚高峰客流": 654009, "工作日日均": 34644.172413793101, "周末日均": 26377.694444444445 }, "geometry": { "type": "Point", "coordinates": [ 121.523979949, 31.280810293 ] } },
{ "type": "Feature", "properties": { "stationID": 503, "name": "Yindu Road", "lon": 121.38572677499999, "lat": 31.091103672, "全天总客流": 1670369, "早高峰客流": 489244, "晚高峰客流": 362239, "工作日日均": 15933.471264367816, "周末日均": 7893.25 }, "geometry": { "type": "Point", "coordinates": [ 121.385726775, 31.091103672 ] } },
{ "type": "Feature", "properties": { "stationID": 1019, "name": "Ziteng Road", "lon": 121.36010050199999, "lat": 31.171575037, "全天总客流": 861164, "早高峰客流": 232714, "晚高峰客流": 183082, "工作日日均": 8228.1494252873563, "周末日均": 4036.5277777777778 }, "geometry": { "type": "Point", "coordinates": [ 121.360100502, 31.171575037 ] } },
{ "type": "Feature", "properties": { "stationID": 845, "name": "Middle Yanji Road", "lon": 121.530621364, "lat": 31.290009786, "全天总客流": 3994218, "早高峰客流": 1063096, "晚高峰客流": 635727, "工作日日均": 35031.14942528736, "周末日均": 26291.888888888891 }, "geometry": { "type": "Point", "coordinates": [ 121.530621364, 31.290009786 ] } },
{ "type": "Feature", "properties": { "stationID": 2001, "name": "Zhongtan Road", "lon": 121.436350839, "lat": 31.256450861000001, "全天总客流": 4926960, "早高峰客流": 1235972, "晚高峰客流": 879514, "工作日日均": 44061.34482758621, "周末日均": 30378.416666666668 }, "geometry": { "type": "Point", "coordinates": [ 121.436350839, 31.256450861 ] } },
{ "type": "Feature", "properties": { "stationID": 2002, "name": "South Xizang Road", "lon": 121.485172565, "lat": 31.203927157, "全天总客流": 6992659, "早高峰客流": 1419921, "晚高峰客流": 1147635, "工作日日均": 63808.862068965522, "周末日均": 40035.777777777781 }, "geometry": { "type": "Point", "coordinates": [ 121.485172565, 31.203927157 ] } },
{ "type": "Feature", "properties": { "stationID": 2003, "name": "Zhaojiabang Road", "lon": 121.445871009, "lat": 31.200675112, "全天总客流": 7023821, "早高峰客流": 1474734, "晚高峰客流": 1332512, "工作日日均": 66956.333333333328, "周末日均": 33295.0 }, "geometry": { "type": "Point", "coordinates": [ 121.445871009, 31.200675112 ] } },
{ "type": "Feature", "properties": { "stationID": 511, "name": "Huaning Road", "lon": 121.390678018, "lat": 31.00938857, "全天总客流": 1402008, "早高峰客流": 442668, "晚高峰客流": 199284, "工作日日均": 12806.919540229885, "周末日均": 7994.6111111111113 }, "geometry": { "type": "Point", "coordinates": [ 121.390678018, 31.00938857 ] } },
{ "type": "Feature", "properties": { "stationID": 2005, "name": "Hongkou Football Stadium", "lon": 121.47470204, "lat": 31.273254588, "全天总客流": 11853573, "早高峰客流": 1990105, "晚高峰客流": 2321817, "工作日日均": 99044.034482758623, "周末日均": 89909.5 }, "geometry": { "type": "Point", "coordinates": [ 121.47470204, 31.273254588 ] } },
{ "type": "Feature", "properties": { "stationID": 2006, "name": "Dong'an Road", "lon": 121.4499314, "lat": 31.19256869, "全天总客流": 6496969, "早高峰客流": 1258600, "晚高峰客流": 911955, "工作日日均": 60666.666666666657, "周末日均": 33860.25 }, "geometry": { "type": "Point", "coordinates": [ 121.4499314, 31.19256869 ] } },
{ "type": "Feature", "properties": { "stationID": 2007, "name": "Damuqiao Road", "lon": 121.458937996, "lat": 31.195957765, "全天总客流": 4166531, "早高峰客流": 910564, "晚高峰客流": 772746, "工作日日均": 37702.103448275862, "周末日均": 24623.555555555555 }, "geometry": { "type": "Point", "coordinates": [ 121.458937996, 31.195957765 ] } },
{ "type": "Feature", "properties": { "stationID": 2008, "name": "Laoximen", "lon": 121.478279894, "lat": 31.221015196, "全天总客流": 6066085, "早高峰客流": 1111968, "晚高峰客流": 1095081, "工作日日均": 53567.586206896551, "周末日均": 39047.361111111109 }, "geometry": { "type": "Point", "coordinates": [ 121.478279894, 31.221015196 ] } },
{ "type": "Feature", "properties": { "stationID": 2009, "name": "Jinshajiang Road", "lon": 121.408591207, "lat": 31.234008201000002, "全天总客流": 10584020, "早高峰客流": 1818374, "晚高峰客流": 2007886, "工作日日均": 88173.425287356324, "周末日均": 80914.777777777781 }, "geometry": { "type": "Point", "coordinates": [ 121.408591207, 31.234008201 ] } },
{ "type": "Feature", "properties": { "stationID": 2010, "name": "Century Avenue", "lon": 121.522955917, "lat": 31.230803895000001, "全天总客流": 13584047, "早高峰客流": 2953175, "晚高峰客流": 2981889, "工作日日均": 126947.5172413793, "周末日均": 70544.805555555562 }, "geometry": { "type": "Point", "coordinates": [ 121.522955917, 31.230803895 ] } },
{ "type": "Feature", "properties": { "stationID": 2011, "name": "Xinzhuang", "lon": 121.380839538, "lat": 31.112983939, "全天总客流": 16001541, "早高峰客流": 4003149, "晚高峰客流": 2682771, "工作日日均": 142359.31034482759, "周末日均": 100452.25 }, "geometry": { "type": "Point", "coordinates": [ 121.380839538, 31.112983939 ] } },
{ "type": "Feature", "properties": { "stationID": 2012, "name": "Longhua", "lon": 121.44848548500001, "lat": 31.17485915, "全天总客流": 5827704, "早高峰客流": 1543806, "晚高峰客流": 1116074, "工作日日均": 53349.678160919539, "周末日均": 32952.277777777781 }, "geometry": { "type": "Point", "coordinates": [ 121.448485485, 31.17485915 ] } },
{ "type": "Feature", "properties": { "stationID": 2013, "name": "Hongqiao Terminal 2", "lon": 121.32171762599999, "lat": 31.196484051, "全天总客流": 5288641, "早高峰客流": 1212281, "晚高峰客流": 845344, "工作日日均": 46026.402298850575, "周末日均": 35676.222222222219 }, "geometry": { "type": "Point", "coordinates": [ 121.321717626, 31.196484051 ] } },
{ "type": "Feature", "properties": { "stationID": 2014, "name": "Hongqiao Railway Station", "lon": 121.313063017, "lat": 31.196155827999998, "全天总客流": 18164952, "早高峰客流": 2782915, "晚高峰客流": 2971951, "工作日日均": 143562.81609195401, "周末日均": 157638.52777777778 }, "geometry": { "type": "Point", "coordinates": [ 121.313063017, 31.196155828 ] } },
{ "type": "Feature", "properties": { "stationID": 2015, "name": "Lancun Road", "lon": 121.524302062, "lat": 31.213714866, "全天总客流": 7357513, "早高峰客流": 1845323, "晚高峰客流": 1548126, "工作日日均": 70169.574712643676, "周末日均": 34798.888888888891 }, "geometry": { "type": "Point", "coordinates": [ 121.524302062, 31.213714866 ] } },
{ "type": "Feature", "properties": { "stationID": 2016, "name": "Yaohua Road", "lon": 121.49009126599999, "lat": 31.180529911000001, "全天总客流": 6264602, "早高峰客流": 1331999, "晚高峰客流": 1142634, "工作日日均": 52266.080459770114, "周末日均": 47707.027777777781 }, "geometry": { "type": "Point", "coordinates": [ 121.490091266, 31.180529911 ] } },
{ "type": "Feature", "properties": { "stationID": 2017, "name": "Changshu Road", "lon": 121.44651285099999, "lat": 31.215311024999998, "全天总客流": 7870983, "早高峰客流": 1426610, "晚高峰客流": 1540524, "工作日日均": 73824.448275862072, "周末日均": 40229.333333333336 }, "geometry": { "type": "Point", "coordinates": [ 121.446512851, 31.215311025 ] } },
{ "type": "Feature", "properties": { "stationID": 2018, "name": "Siping Road", "lon": 121.497061344, "lat": 31.276968216, "全天总客流": 4253093, "早高峰客流": 979816, "晚高峰客流": 779841, "工作日日均": 37952.574712643684, "周末日均": 26422.75 }, "geometry": { "type": "Point", "coordinates": [ 121.497061344, 31.276968216 ] } },
{ "type": "Feature", "properties": { "stationID": 2019, "name": "East Nanjing Road", "lon": 121.478953029, "lat": 31.239024894, "全天总客流": 22537999, "早高峰客流": 2815442, "晚高峰客流": 4393683, "工作日日均": 187090.25287356321, "周末日均": 173920.75 }, "geometry": { "type": "Point", "coordinates": [ 121.478953029, 31.239024894 ] } },
{ "type": "Feature", "properties": { "stationID": 2020, "name": "Changshou Road", "lon": 121.433696872, "lat": 31.241718375000001, "全天总客流": 8462012, "早高峰客流": 1476747, "晚高峰客流": 1701059, "工作日日均": 76761.50574712643, "周末日均": 49548.916666666657 }, "geometry": { "type": "Point", "coordinates": [ 121.433696872, 31.241718375 ] } },
{ "type": "Feature", "properties": { "stationID": 2021, "name": "Qufu Road", "lon": 121.467113891, "lat": 31.244662253000001, "全天总客流": 5645679, "早高峰客流": 814084, "晚高峰客流": 1107774, "工作日日均": 46612.942528735643, "周末日均": 44176.472222222219 }, "geometry": { "type": "Point", "coordinates": [ 121.467113891, 31.244662253 ] } },
{ "type": "Feature", "properties": { "stationID": 2022, "name": "Jinhai Road", "lon": 121.634358453, "lat": 31.266432375000001, "全天总客流": 3761507, "早高峰客流": 1030673, "晚高峰客流": 683038, "工作日日均": 33005.597701149425, "周末日均": 24722.777777777777 }, "geometry": { "type": "Point", "coordinates": [ 121.634358453, 31.266432375 ] } },
{ "type": "Feature", "properties": { "stationID": 2023, "name": "West Gaoke Road", "lon": 121.505517848, "lat": 31.187777365, "全天总客流": 2858601, "早高峰客流": 785052, "晚高峰客流": 545503, "工作日日均": 26438.057471264368, "周末日均": 15513.611111111111 }, "geometry": { "type": "Point", "coordinates": [ 121.505517848, 31.187777365 ] } },
{ "type": "Feature", "properties": { "stationID": 2024, "name": "Zhenping Road", "lon": 121.425155934, "lat": 31.248182892, "全天总客流": 7978310, "早高峰客流": 1895605, "晚高峰客流": 1485761, "工作日日均": 72081.540229885053, "周末日均": 47422.666666666657 }, "geometry": { "type": "Point", "coordinates": [ 121.425155934, 31.248182892 ] } },
{ "type": "Feature", "properties": { "stationID": 2025, "name": "Xujiahui", "lon": 121.433617821, "lat": 31.193882267, "全天总客流": 23815524, "早高峰客流": 3401000, "晚高峰客流": 4757718, "工作日日均": 203160.45977011492, "周末日均": 170571.22222222222 }, "geometry": { "type": "Point", "coordinates": [ 121.433617821, 31.193882267 ] } },
{ "type": "Feature", "properties": { "stationID": 2026, "name": "Tiantong Road", "lon": 121.47772089, "lat": 31.246365172000001, "全天总客流": 4922813, "早高峰客流": 829152, "晚高峰客流": 966683, "工作日日均": 42056.563218390802, "周末日均": 35108.111111111109 }, "geometry": { "type": "Point", "coordinates": [ 121.47772089, 31.246365172 ] } },
{ "type": "Feature", "properties": { "stationID": 2027, "name": "Shanghai South Railway Station", "lon": 121.425368538, "lat": 31.15649931, "全天总客流": 15953960, "早高峰客流": 3587295, "晚高峰客流": 2751138, "工作日日均": 132490.091954023, "周末日均": 122981.16666666669 }, "geometry": { "type": "Point", "coordinates": [ 121.425368538, 31.15649931 ] } },
{ "type": "Feature", "properties": { "stationID": 2028, "name": "South Huangpi Road", "lon": 121.468716902, "lat": 31.224666072000002, "全天总客流": 10752859, "早高峰客流": 1473566, "晚高峰客流": 2258845, "工作日日均": 95222.40229885056, "周末日均": 68569.722222222219 }, "geometry": { "type": "Point", "coordinates": [ 121.468716902, 31.224666072 ] } },
{ "type": "Feature", "properties": { "stationID": 2029, "name": "Shanghai Indoor Stadium", "lon": 121.431603228, "lat": 31.183782631, "全天总客流": 8928220, "早高峰客流": 1480299, "晚高峰客流": 1902428, "工作日日均": 76538.563218390802, "周末日均": 63037.916666666657 }, "geometry": { "type": "Point", "coordinates": [ 121.431603228, 31.183782631 ] } },
{ "type": "Feature", "properties": { "stationID": 2030, "name": "Baoshan Road", "lon": 121.471816719, "lat": 31.253456818000004, "全天总客流": 3255792, "早高峰客流": 676417, "晚高峰客流": 561396, "工作日日均": 28532.264367816093, "周末日均": 21485.694444444445 }, "geometry": { "type": "Point", "coordinates": [ 121.471816719, 31.253456818 ] } },
{ "type": "Feature", "properties": { "stationID": 2045, "name": "Longhua Middle Road", "lon": 121.45265152899999, "lat": 31.186257229, "全天总客流": 5146550, "早高峰客流": 1051761, "晚高峰客流": 1080142, "工作日日均": 47449.206896551725, "周末日均": 28290.805555555555 }, "geometry": { "type": "Point", "coordinates": [ 121.452651529, 31.186257229 ] } },
{ "type": "Feature", "properties": { "stationID": 2032, "name": "Dalian Road", "lon": 121.50836733600001, "lat": 31.26024083, "全天总客流": 6404451, "早高峰客流": 1480496, "晚高峰客流": 1301269, "工作日日均": 60661.54022988506, "周末日均": 31302.694444444445 }, "geometry": { "type": "Point", "coordinates": [ 121.508367336, 31.26024083 ] } },
{ "type": "Feature", "properties": { "stationID": 2033, "name": "Jiashan Road", "lon": 121.456454874, "lat": 31.204614556, "全天总客流": 6205742, "早高峰客流": 1164265, "晚高峰客流": 1232128, "工作日日均": 56223.137931034486, "周末日均": 36509.138888888891 }, "geometry": { "type": "Point", "coordinates": [ 121.456454874, 31.204614556 ] } },
{ "type": "Feature", "properties": { "stationID": 2034, "name": "Shanghai Railway Station", "lon": 121.451257271, "lat": 31.249149418999998, "全天总客流": 24432692, "早高峰客流": 4611721, "晚高峰客流": 4485019, "工作日日均": 205965.97701149425, "周末日均": 180934.77777777775 }, "geometry": { "type": "Point", "coordinates": [ 121.451257271, 31.249149419 ] } },
{ "type": "Feature", "properties": { "stationID": 2035, "name": "People's Square", "lon": 121.470457083, "lat": 31.234865971000001, "全天总客流": 35646234, "早高峰客流": 3980107, "晚高峰客流": 7458645, "工作日日均": 288522.7356321839, "周末日均": 292909.88888888888 }, "geometry": { "type": "Point", "coordinates": [ 121.470457083, 31.234865971 ] } },
{ "type": "Feature", "properties": { "stationID": 2036, "name": "Lujiabang Road", "lon": 121.48162933899999, "lat": 31.213855096, "全天总客流": 7706370, "早高峰客流": 1522296, "晚高峰客流": 1370955, "工作日日均": 68632.229885057473, "周末日均": 48204.611111111109 }, "geometry": { "type": "Point", "coordinates": [ 121.481629339, 31.213855096 ] } },
{ "type": "Feature", "properties": { "stationID": 510, "name": "Jingping Road", "lon": 121.405597024, "lat": 31.013174969000001, "全天总客流": 2256213, "早高峰客流": 608706, "晚高峰客流": 337401, "工作日日均": 19893.551724137931, "周末日均": 14596.5 }, "geometry": { "type": "Point", "coordinates": [ 121.405597024, 31.013174969 ] } },
{ "type": "Feature", "properties": { "stationID": 2038, "name": "Caobao Road", "lon": 121.43031038399999, "lat": 31.170171562, "全天总客流": 8110148, "早高峰客流": 1783569, "晚高峰客流": 1524266, "工作日日均": 73090.229885057473, "周末日均": 48647.166666666657 }, "geometry": { "type": "Point", "coordinates": [ 121.430310384, 31.170171562 ] } },
{ "type": "Feature", "properties": { "stationID": 2039, "name": "Hanzhong Road", "lon": 121.45408942900001, "lat": 31.24375272, "全天总客流": 8217504, "早高峰客流": 1603388, "晚高峰客流": 1874397, "工作日日均": 81136.850574712647, "周末日均": 32183.277777777777 }, "geometry": { "type": "Point", "coordinates": [ 121.454089429, 31.24375272 ] } },
{ "type": "Feature", "properties": { "stationID": 2040, "name": "Oriental Sports Center", "lon": 121.47642391399999, "lat": 31.15531154, "全天总客流": 1433386, "早高峰客流": 377145, "晚高峰客流": 283632, "工作日日均": 12353.0, "周末日均": 9963.1944444444434 }, "geometry": { "type": "Point", "coordinates": [ 121.476423914, 31.15531154 ] } },
{ "type": "Feature", "properties": { "stationID": 2041, "name": "West Nanjing Road", "lon": 121.45562790300001, "lat": 31.231607822000001, "全天总客流": 25964114, "早高峰客流": 4161501, "晚高峰客流": 5570219, "工作日日均": 237807.70114942529, "周末日均": 146523.44444444444 }, "geometry": { "type": "Point", "coordinates": [ 121.455627903, 31.231607822 ] } },
{ "type": "Feature", "properties": { "stationID": 1018, "name": "Hangzhong Road", "lon": 121.350339687, "lat": 31.167316837000001, "全天总客流": 2523136, "早高峰客流": 807201, "晚高峰客流": 395050, "工作日日均": 23097.14942528736, "周末日均": 14269.0 }, "geometry": { "type": "Point", "coordinates": [ 121.350339687, 31.167316837 ] } },
{ "type": "Feature", "properties": { "stationID": 2043, "name": "Zhongshan Park", "lon": 121.41262204500001, "lat": 31.220078902000001, "全天总客流": 20405201, "早高峰客流": 3073154, "晚高峰客流": 4020541, "工作日日均": 173095.2643678161, "周末日均": 148497.58333333334 }, "geometry": { "type": "Point", "coordinates": [ 121.412622045, 31.220078902 ] } },
{ "type": "Feature", "properties": { "stationID": 2044, "name": "Hongqiao Road", "lon": 121.416178272, "lat": 31.199283289, "全天总客流": 7730439, "早高峰客流": 1664839, "晚高峰客流": 1604826, "工作日日均": 72736.988505747126, "周末日均": 38953.361111111109 }, "geometry": { "type": "Point", "coordinates": [ 121.416178272, 31.199283289 ] } },
{ "type": "Feature", "properties": { "stationID": 509, "name": "Dongchuan Road", "lon": 121.41527628599999, "lat": 31.020129530999998, "全天总客流": 3837961, "早高峰客流": 948455, "晚高峰客流": 660231, "工作日日均": 33373.080459770114, "周末日均": 25958.416666666668 }, "geometry": { "type": "Point", "coordinates": [ 121.415276286, 31.020129531 ] } },
{ "type": "Feature", "properties": { "stationID": 2046, "name": "West Yan'an Road", "lon": 121.412433163, "lat": 31.21145601, "全天总客流": 6670713, "早高峰客流": 1450583, "晚高峰客流": 1462049, "工作日日均": 62642.85057471264, "周末日均": 33910.694444444445 }, "geometry": { "type": "Point", "coordinates": [ 121.412433163, 31.21145601 ] } },
{ "type": "Feature", "properties": { "stationID": 2047, "name": "Hailun Road", "lon": 121.485286062, "lat": 31.260924792000001, "全天总客流": 6236195, "早高峰客流": 1343660, "晚高峰客流": 1290697, "工作日日均": 57157.436781609198, "周末日均": 35097.166666666664 }, "geometry": { "type": "Point", "coordinates": [ 121.485286062, 31.260924792 ] } }
]
}
